,Carpark Name,Carpark Address,Mon-Fri before 5/6pm,Mon-Fri after 5/6pm,Sat,Sun/Public Holiday,Latitude,Longitude
0,Golden Mile Food Centre,"505 Beach Road, S(199583)","\$0.60/30min from 7am to 10am, \$0.80/30min from 10am to 10.30pm",Season parking only from 10.30pm to 7am the following day,Charges same as weekdays,Charges same as weekdays,1.3029296,103.8638999
1,Maxwell Food Centre,"2 Murray Street, S(079519)",HDB / URA parking rates,HDB / URA parking rates,HDB / URA parking rates,HDB / URA parking rates,1.279543,103.844466
2,Zion Riverside Food Centre,"86 Zion Road, S(160086)",HDB / URA parking rates,HDB / URA parking rates,HDB / URA parking rates,HDB / URA parking rates,1.2909537,103.8328319
3,Delta Hockey Pitch,"900 Tiong Bahru Road, S(158790)",Limited Free Parking Lots,Limited Free Parking Lots,Limited Free Parking Lots,Limited Free Parking Lots,1.289297,103.820672
4,Farrer Park Field,1 Rutland Road,HDB / URA parking rates,HDB / URA parking rates,HDB / URA parking rates,HDB / URA parking rates,1.311456,103.849107
5,Geylang Field,"30 Lorong 12 Geylang, S(399005)",HDB / URA parking rates,HDB / URA parking rates,HDB / URA parking rates,HDB / URA parking rates,1.3109826,103.878368
6,Saint Wilfrid Sports Complex / Saint Wilfred Field,"3 Saint Wilfred Road, S(327920)",HDB / URA parking rates,HDB / URA parking rates,HDB / URA parking rates,HDB / URA parking rates,1.3253956,103.8620418
7,Bedok Stadium / Sports Hall / ClubFITT Gym,"1 Bedok North Street 2, S(469642)",HDB / URA parking rates,HDB / URA parking rates,HDB / URA parking rates,HDB / URA parking rates,1.3261,103.938864
8,Bishan Stadium / Sports Hall / ClubFITT Gym,"7 Bishan Street 14, S(579784)",HDB / URA parking rates,HDB / URA parking rates,HDB / URA parking rates,HDB / URA parking rates,1.355076,103.851273
9,Bukit Gombak Stadium / Sports Hall / ClubFITT Gym,"800 Bukit Batok West Avenue 5, S(659081)",\$0.50/30min from 7am to 10pm,\$4.00/entry from 10pm to 7am the following day,Charges same as weekdays,Charges same as weekdays,1.358174,103.752976
10,Clementi Stadium / Sports Hall / ClubFITT Gym,"10 West Coast Walk, S(127156)",HDB / URA parking rates,HDB / URA parking rates,HDB / URA parking rates,HDB / URA parking rates,1.310066,103.762529
11,Choa Chu Kang Stadium / Sports Hall / ClubFITT Gym,"1 Choa Chu Kang Street 53, S(689236)",\$0.50/30min from 7.30am to 10.30pm,\$0.50/30min from 10.30pm to 7.30am the following day,Charges same as weekdays,Charges same as weekdays,1.3909855,103.7486763
12,Delta Sports Hall / ClubFITT Gym,"900 Tiong Bahru Road, S(158790)",HDB / URA parking rates,HDB / URA parking rates,HDB / URA parking rates,HDB / URA parking rates,1.289297,103.820672
13,Hougang Stadium / Sports Hall / ClubFITT Gym,"100 Hougang Avenue 2, S(538856)",HDB / URA parking rates,HDB / URA parking rates,HDB / URA parking rates,HDB / URA parking rates,1.369468,103.886035
14,Jurong East Sports and Cultural Centre / ClubFITT Gym,"21 Jurong East Street 31, S(609517)",HDB / URA parking rates,HDB / URA parking rates,HDB / URA parking rates,HDB / URA parking rates,1.346852,103.729195
15,Jurong West Stadium / Sports Hall / ClubFITT Gym,"20 Jurong West Street 93, S(648965)",\$0.60/hr from 7am to 10.30pm,\$0.60/hr from 10.30pm to 7am the following day,Charges same as weekdays,Charges same as weekdays,1.338372,103.6944751
16,Tampines Stadium / Sports Hall / ClubFITT Gym,"25 Tampines Street 82, S(528988)",HDB / URA parking rates,HDB / URA parking rates,HDB / URA parking rates,HDB / URA parking rates,1.352771,103.940312
17,Toa Payoh Stadium / Sports Hall / ClubFITT Gym,"297 Lorong 6 Toa Payoh, S(319389)",\$1.00/hr from 7am to 5pm,\$1.00/hr from 5pm to 7am the following day,Charges same as weekdays,Charges same as weekdays,1.3303976999999998,103.8511549
18,Woodlands Stadium / Sports Hall / ClubFITT Gym,"1 Woodlands Street 12, S(738619)",\$0.50/30min from 7am to 10.30pm,\$0.50/30min from 10.30pm to 7am the following day,Charges same as weekdays,Charges same as weekdays,1.4350836999999999,103.7804926
19,Yio Chu Kang Stadium / Sports Hall / ClubFITT Gym,"210 Ang Mo Kio Avenue 9, S(569777)","\$0.50 for 1st 30min, \$1.00 for next subsequent hr from 7am to 7pm","\$.50 for 1st 30min, \$1.00 for next subsequent hr from 7pm to 7am the following day",Charges same as weekdays,Charges same as weekdays,1.383111,103.846582
20,Yishun Stadium / Sports Hall / ClubFITT Gym,"101 Yishun Avenue 1, S(769130)",HDB / URA parking rates,HDB / URA parking rates,HDB / URA parking rates,HDB / URA parking rates,1.4119978000000002,103.8311012
21,Jurong Stadium,"10 Chin Bee Road, S(619821)",HDB / URA parking rates,HDB / URA parking rates,HDB / URA parking rates,HDB / URA parking rates,1.328506,103.7136419
22,Jurong East Stadium,"21 Jurong East Street 31, S(609517)",HDB / URA parking rates,HDB / URA parking rates,HDB / URA parking rates,HDB / URA parking rates,1.346852,103.729195
23,Queenstown Stadium,"473A Stirling Road, S(148949)",HDB / URA parking rates,HDB / URA parking rates,HDB / URA parking rates,HDB / URA parking rates,1.296241,103.802265
24,Serangoon Stadium,"35 Yio Chu Kang Road, S(545552)",HDB / URA parking rates,HDB / URA parking rates,HDB / URA parking rates,HDB / URA parking rates,1.3572138,103.8746754
25,Jalan Besar Stadium,"100 Jalan Besar Stadium, S(207542)",HDB / URA parking rates,HDB / URA parking rates,HDB / URA parking rates,HDB / URA parking rates,1.309662,103.8600859
26,Kallang Leisure Park,"5 Stadium Walk, S(397693)","1st hr free, \$0.50 for next subsequent 30min from 8.30am to 6pm from Mon to Thurs",\$1.50/entry from 6pm to 3am the following day from Mon to Thurs,"\$0.50 for 1st hr, \$0.40 for next subsequent 15min from 8.30am to 6pm. \$2.10/entry from 6pm to 3am the following day from Fri to Sun","\$0.50 for 1st hr, \$0.40 for next subsequent 15min from 8.30am to 6pm. \$2.10/entry from 6pm to 3am the following day from Fri to Sun",1.3023452,103.8764403
27,Big Splash,"902 East Coast Parkway, S(449874)",Free parking from 12midnight to 5pm,\$1.50/hr from 5pm to 12midnight the following day,\$1.50/hr from 5am to 5am the following day,\$1.50/hr from 5am to 5am the following day,1.297117,103.8998764
28,Singapore Flyer,"30 Raffles Avenue, S(039803)",\$2.00/hr from 6am to 6pm,\$2.00/entry from 6pm to 6am the following day,"\$2.00/hr from 6am to 12midnight, \$2.00/entry from 12midnight to 6am the following day","\$2.00/hr from 6am to 12midnight, \$2.00/entry from 12midnight to 6am the following day",1.2895301,103.8632483
29,DHL Balloon,"Tan Quee Lan Street, S(188091)",Carpark closed,Carpark closed,Carpark closed,Carpark closed,1.2984502,103.8567847
30,G-MAX Reverse Bungy / GX-5 Xtreme Swing,"3E River Valley Road, S(179024)","\$2.00 for 1st 2hr, \$1.00 for next subsequent hr from 7am to 5pm","\$2.00 for 1st hr, \$1.00 for next subsequent hr from 5pm to 7am the following day up to a maximum charge of \$5.00",Charges same as weekdays,\$2.50/entry from 7am to 7am the following day,1.290668,103.846205
31,Central,"6 Eu Tong Sen Street, S(059817)","\$2.20 for 1st hr, \$1.10 for next subsequent 30min from 6am to 5pm",\$3.50/entry from 5pm to 6am the following day,Charges same as weekdays,\$3.50/entry from 6am to 6am the following day,1.2889924,103.8467458
32,Regional Ferry Terminal (RFT),"1 Maritime Square, S(099253)","\$2.04/hr from 1am to 7am, \$1.40 for 1st hr \$0.70 for subsequent 30min from 7am to 6pm",\$2.60/entry from 6pm to 1am,Charges same as weekdays,Charges same as weekdays,1.2641701,103.8202645
33,International Passenger Terminal (IPT),"1 Maritime Square, S(099253)","\$2.04/hr from 1am to 7am, \$1.40 for 1st hr \$0.70 for subsequent 30min from 7am to 6pm",\$2.60/entry from 6pm to 1am the following day,Charges same as weekdays,Charges same as weekdays,1.2641701,103.8202645
34,Surbana One,"168 Jalan Bukit Merah, S(150168)",\$0.50/30min from 7am to 6pm,"\$1.00/entry from 6pm to 1am the following day, \$2.00/entry for night parking from 10.30pm to 7am",Charges same as weekdays,"\$1.00/entry from 7am to 1am the following day, \$2.00/entry for night parking from 10.30pm to 7am",1.2832255,103.818695
35,NOL Building,"456 Alexandra Road, S(119962)",\$1.60/hr from 7.30am to 5pm,\$2.50/entry from 5pm to 7.30am the following day,"\$1.60/hr from 7am to 1pm, \$2.50/entry from 1pm to 7am the following day",\$2.50/entry from 7am to 7am the following day,1.2751618,103.8013875
36,Technopark @ Chai Chee,"750 Chai Chee Road, S(469000)",\$1.50/hr from 8am to 5pm,\$1.20/hr from 5pm to 8am the following day,Charges same as weekdays,Charges same as weekdays,1.3237033999999999,103.9221915
37,Link Hotel Singapore,"50 Tiong Bahru Road, S(168733)","\$3.00 for 1st hr, \$1.50 for next subsequent 30min from 7am to 7am","\$3.00 for 1st hr, \$1.50 for next subsequent 30min from 7am to 7am",Charges same as weekdays,Charges same as weekdays,1.2848666000000002,103.8343245
38,Sentosa - Imbiah,Imbiah Road,\$0.02/min from 7am to 5pm,\$2.40/entry from 5.01pm to 6.59am the following day,Charges same as weekdays,Charges same as weekdays,1.2558919,103.8159477
39,Sentosa - Palawan Beach,Lighthouse Beach Walk,\$0.02/min from 7am to 5pm,\$2.40/entry from 5.01pm to 6.59am the following day,Charges same as weekdays,Charges same as weekdays,1.2488313,103.8281471
40,Sentosa - Tanjong Beach,Tanjong Beach Walk,\$0.02/min from 7am to 5pm,\$2.40/entry from 5.01pm to 6.59am the following day,Charges same as weekdays,Charges same as weekdays,1.2453215,103.8263477
41,Reflections at Bukit Chandu (RBC),"31K Pepys Road, S(118458)",Free Parking,Free Parking,Free Parking,Free Parking,1.2795421,103.7943384
42,Memories at Old Ford Factory (MOFF),"351 Upper Bukit Timah Road, S(588192)",Free Parking,Free Parking,Free Parking,Free Parking,1.3520743,103.7677059
43,National Archives of Singapore (NAS),"1 Canning Rise, S(179868)",HDB / URA parking rates,HDB / URA parking rates,HDB / URA parking rates,HDB / URA parking rates,1.293299,103.848598
44,The Battle Box,"51 Canning Rise, S(179872)",HDB / URA parking rates,HDB / URA parking rates,HDB / URA parking rates,HDB / URA parking rates,1.2961823,103.8461518
45,Civilian War Memorial (War Memorial Park),"War Memorial Park, Beach Road, S(189701)","\$2.20 for 1st 2hr, \$1.10/30min from 7am to 5pm from Mon to Thurs","\$2.20/entry from 5pm to 2am the following day, \$1.10/30min from 2am to 7am from Mon to Thurs","\$2.40 for 1st 2hr, \$1.20/hr for next subsequent 2hr, \$1.40/30min after the 4th hr from 7am to 2am the following day, \$1.10/30min from 2am to 7am from Fri to Sun","\$2.40 for 1st 2hr, \$1.20/hr for next subsequent 2hr, \$1.40/30min after the 4th hr from 7am to 2am the following day, \$1.10/30min from 2am to 7am from Fri to Sun",1.2928957,103.8546778
46,Kranji War Memorial,"9 Woodlands Road, S(738656)",HDB / URA parking rates,HDB / URA parking rates,HDB / URA parking rates,HDB / URA parking rates,1.419029,103.757487
47,Aero-Green Technology,"260 Neo Tiew Crescent, S(718899)",Free parking from 9am to 5pm daily,Car Park closed after 5pm,Charges same as weekdays,Charges same as weekdays,1.4447508999999998,103.7293874
48,Bollywood Veggies / Poison Ivy Bistro,"100 Neo Tiew Road, S(719026)",Free parking,Free parking,Charges same as weekdays,Charges same as weekdays,1.418319,103.716853
49,DreamFish (Lim Chu Kang Agrotechnology Park),"221 Neo Tiew Crescent, S(718831)",Free parking from 9am to 6pm on Mon to Sat,Free parking from 9am to 6pm on Mon to Sat,Charges same as weekdays,Closed,1.435825,103.724622
50,Fire Flies Health Farm,"75 Lim Chu Kang Lane 2, S(719842)",Free parking,Free parking,Charges same as weekdays,Charges same as weekdays,1.4291452,103.7140249
51,Hausmann Marketing Aquarium (Fish Farm),"291 Plot 113 Neo Tiew Crescent, S(718903)",Free parking,Free parking,Charges same as weekdays,Charges same as weekdays,1.444319,103.728998
52,Changi Point Coastal Walk / Changi Beach (Car Park 1 to 6),Changi Beach,HDB / URA parking rates from 8.30am to 5pm,Free parking from 5.01pm to 8.29am the following day,Charges same as weekdays,Free Parking,1.3909433,103.9920554
53,IBM Place 2,"9 Changi Business Park Central 1, S(486048)",\$0.50/30min from 7am to 10pm,Car Park closed after 10pm,Charges same as weekdays,"Free parking from 7am to 10pm, Car Park closed after 10pm",1.3365545,103.9652132
54,PSA Building,"460 Alexandra Road, S(119963)",\$2.00/hr from 7am to 6.30pm,"Free parking from 6.30pm to 11pm, \$2.40/hr from 11pm to 7am the following day","Free parking from 7am to 11pm, \$2.40/hr from 11pm to 7am the following day","Free parking from 7am to 11pm, \$2.40/hr from 11pm to 7am the following day",1.2739458,103.8014493
55,The Comtech,"60 Alexandra Terrace, S(118502)",Carpark closed,Carpark closed,Carpark closed,Carpark closed,1.2766540000000002,103.7981154
56,"East Coast Park (Car Park B, C, D, F, G and H)","1000 East Coast Parkway, S(449876)",Free Parking,Free Parking,Free Parking,Free Parking,1.3013854999999999,103.912858
57,Marina at Keppel Bay,"2 Keppel Bay Vista, S(098382)",\$2.50/hr from 7am to 11.59pm,\$5.00/hr from 12am to 6.59am,Charges same as weekdays,Charges same as weekdays,1.2639777,103.812465
58,Crocodile House,"3 Ubi Avenue 3, S(408857)",\$1.40/hr from 8am to 5pm,\$2.00/entry from 5pm to 8am the following day,"\$1.40/hr from 8am to 3pm, Car Park closed after 3pm",Closed,1.3311098,103.8904094
59,Millenia Tower,"1 Temasek Avenue, S(039192)","\$3.30 for 1st hr, \$1.10 for next subsequent 30min from 7am to 6pm",\$2.20/entry from 6pm to 7am the following day,"\$2.20 for 1st 2hr, \$1.10 for next subsequent hr from 7am to 7am the following day","\$2.20 for 1st 2hr, \$1.10 for next subsequent hr from 7am to 7am the following day",1.2927927,103.8603403
60,Centennial Tower,"3 Temasek Avenue, S(039190)","\$3.30 for 1st hr, \$1.10 for next subsequent 30min from 7am to 6pm",\$2.20/entry from 6pm to 7am the following day,"\$2.20 for 1st 2hr, \$1.10 for next subsequent hr from 7am to 7am the following day","\$2.20 for 1st 2hr, \$1.10 for next subsequent hr from 7am to 7am the following day",1.2934951,103.8602587
61,HDB Blk 3 (Tanjong Pagar Plaza),"Blk 3, Tanjong Pagar Plaza, S(081003)",\$0.05/min from 7am to 4.59pm,"\$0.02/min from 5pm to 10.29pm, \$0.02/min up to a maximum charge of \$5.00 from 10.30pm to 6.59am the following day","\$0.05/min from 7am to 4.59pm, \$0.02/min from 5pm to 10.29pm, \$0.02/min up to a maximum charge of \$5.00 from 10.30pm to 6.59am the following day","Free parking from 7am to 10.29pm, \$0.02/min up to a maximum charge of \$5.00 from 10.30pm to 6.59am the following day",1.2757351,103.8420352
62,HDB Blk 1 / 2 / 5 / 2A / 28 (Jalan Bukit Merah),"1 Jalan Bukit Merah, S(150001)",HDB / URA parking rates from 7am to 10.29pm,"HDB / URA parking rates, up to a maximum charge of \$5.00 from 10.30pm to 6.59am the following day",Charges same as weekdays,Charges same as weekdays,1.2865434,103.8083586
63,HDB Blk 28 (Hoy Fatt Road),"Blk 28, Hoy Fatt Road, S(151028)",HDB / URA parking rates from 7am to 10.29pm,"HDB / URA parking rates, up to a maximum charge of \$5.00 from 10.30pm to 6.59am the following day",Charges same as weekdays,Charges same as weekdays,1.2865339,103.8100792
64,PSB Academy Campus @ Delta,"355 Jalan Bukit Ho Swee, S(169567)",\$0.70/30min from 7am to 5.59pm,\$4.00/entry from 6pm to 11pm,"\$0.70/30min from 7am to 12.59pm, \$4.00/entry from 1pm to 6pm",\$4.00/entry from 7am to 6pm,1.286938,103.826625
65,HDB Blk 28A / 38 / 49A (Beo Crescent),"Blk 28A, Beo Crescent, S(164028)",HDB / URA parking rates,HDB / URA parking rates,HDB / URA parking rates,Free Parking,1.288227,103.82778
66,Changi Airfreight Centre (CAC),"9 Airline Road, S(819827)",\$0.50/30min from 7am to 9.59pm,\$2.00/entry from 10pm to 6.59am the following day,Charges same as weekdays,Charges same as weekdays,1.382831,103.999542
67,Joo Seng Warehouse,"1 Upper Aljunied Link, S(367901)",\$1.02/hr from 8am to 6pm,Car Park closed after 6pm,"\$1.02/hr from 8am to 4pm, Car Park closed after 4pm",Closed,1.3350059,103.8812845
68,Gek Poh Shopping Centre,"762 Jurong West Street 75, S(640762)",\$0.0167/min from 7am to 4.59pm,"\$0.0167/min up to a maximum charge of \$1.00 from 5pm to 11.59pm, \$0.0167/min up to a maximum charge of \$2.00 from 12midnight to 6.59am the following day","\$0.0167/min up to a maximum charge of \$1.00 from 7am to 11.59pm, \$0.0167/min up to a maximum charge of \$2.00 from 12midnight to 6.59am the following day","\$0.0167/min up to a maximum charge of \$1.00 from 7am to 11.59pm, \$0.0167/min up to a maximum charge of \$2.00 from 12midnight to 6.59am the following day",1.3489545,103.6978116
69,HDB Blk 349 to 355 (Clementi Ave 2),"Blk 349, Clementi Ave 2, S(120349)",HDB / URA parking rates from 7am to 10.29pm,"HDB / URA parking rates, up to a maximum charge of \$5.00 from 10.30pm to 6.59am the following day",Charges same as weekdays,"Free parking from 7am to 10.29pm, \$0.02/min up to a maximum charge of \$5.00 from 10.30pm to 6.59am the following day",1.3159413,103.7710535
70,HDB Blk 442 to 444 / 442A / 445 / 462A (Clementi Ave 3),"Blk 442, Clementi Ave 3, S(120442)",HDB / URA parking rates from 7am to 10.29pm,"HDB / URA parking rates, up to a maximum charge of \$5.00 from 10.30pm to 6.59am the following day",Charges same as weekdays,"Free parking from 7am to 10.29pm, \$0.02/min up to a maximum charge of \$5.00 from 10.30pm to 6.59am the following day",1.314037,103.7643992
71,Henderson Industrial Park Blk 201,"201 Henderson Road, S(159545)",\$1.40/hr from 8am to 4.59pm,\$1.70/entry from 5pm to 7.59am the following day,Charges same as weekdays,Charges same as weekdays,1.2824693,103.8203805
72,Costa Sands Resort (Pasir Ris),"159M Jalan Loyang Besar, S(509404)","\$0.0214/min from Mon to Fri from 12.01am to 5pm. Free parking from 12pm to 2pm from Mon to Thurs (except School / Public Holidays, and Eve of Public Holidays)",\$2.14/entry from Mon to Thurs from 5pm to 12midnight. \$3.21/entry on Fri from 5pm to 12midnight.,"\$0.0214/min from 12.01am to 5pm, \$3.21/entry from 5pm to 12midnight and rates includes eve of PH and School Holidays","\$0.0214/min from 12.01am to 5pm, \$3.21/entry from 5pm to 12midnight and rates includes eve of PH and School Holidays",1.3790148000000002,103.9588524
73,Sentosa - Costa Sands Resort,Imbiah Walk,Free Parking,Free Parking,Free Parking,Free Parking,1.2562898,103.8133187
74,Zirca Mega Club,"3C River Valley Road, S(179022)","\$2.00 for 1st 2hr, \$1.00 for next subsequent hr from 7am to 5pm","\$2.00 for 1st hr, \$1.00 for next subsequent hr from 5pm to 7am the following day up to a maximum charge of \$5.00",Charges same as weekdays,\$2.50/entry from 7am to 7am the following day,1.2908329,103.846009
75,Marina Bay Golf Course (MBGC),"80 Rhu Cross, S(437437)",Free Parking,Free Parking,Free Parking,Free Parking,1.293302,103.871554
76,Tanglin Public Golf Course & Tennis Courts,"130E Minden Road, S(248819)",Private Car Park,Private Car Park,Private Car Park,Private Car Park,1.305807,103.815495
77,Orchid Country Club (OCC),"1 Orchid Club Road, S(769162)",Free Parking,Free Parking,Free Parking,Free Parking,1.4111201,103.8443187
78,Laguna National Golf and Country Club,"11 Laguna Golf Green, S(488047)",Free Parking,Free Parking,Free Parking,Free Parking,1.3237873,103.9632967
79,Raffles Country Club (RCC),"450 Jalan Ahmad Ibrahim, S(639932)",Free Parking,Free Parking,Free Parking,Free Parking,1.335269,103.65192
80,Seletar Country Club,"101 Seletar Club Road, S(798273)",Free Parking,Free Parking,Free Parking,Free Parking,1.409643,103.858065
81,Sembawang Country Club,"249 Sembawang Road, S(758352)",Free Parking,Free Parking,Free Parking,Free Parking,1.4166459999999998,103.815968
82,Sentosa Golf Club (SGC),"27 Bukit Manis Road, S(099892)",Free Parking,Free Parking,Free Parking,Free Parking,1.2438513999999998,103.8293374
83,Limbang Shopping Centre,"533 Choa Chu Kang Street 51, S(680533)",\$0.50/30min from 7am to 5pm,"\$1.00/entry from 5pm to 12midnight, \$2.00/entry from 12midnight to 7am the following day",Charges same as weekdays,"\$1.00/entry from 7am to 12midnight, \$2.00/entry from 12midnight to 7am the following day",1.3920229,103.7432804
84,Civil Service Club (Tessensohn Clubhouse),"60 Tessensohn Road, S(217664)",(For Member): \$1.00/hr from 6am to 6pm (For Public): \$2.00/hr from 6am to 6pm,"(For Member): \$1.80/entry from 6pm to 3am the following day, \$1.50/hr from 3am to 6am (For Public): \$4.00/entry from 6pm to 3am the following day, \$2.00/hr from 3am to 6am",Charges same as weekdays,Charges same as weekdays,1.3158871,103.8560132
85,Civil Service Club (Bukit Batok Clubhouse),"91 Bukit Batok West Avenue 2, S(659206)",(For Member): \$1.00/hr from 6am to 5pm (For Public): \$1.80/hr from 6am to 5pm,"(For Member): \$1.50/entry from 5pm to 12midnight, \$1.50/hr from 12midnight to 6am the following day (For Public): \$3.50/entry from 5pm to 12midnight, \$2.00/hr from 12midnight to 6a",Charges same as weekdays,(For Member): \$1.50/entry from 6am to 6am the following day (For Public): \$3.50/entry from 6am to 6am the following day,1.3528495,103.7493957
86,Tanjong Pagar Railway Station,"30 Keppel Road, S(089059)",Carpark not in use,Carpark not in use,Carpark not in use,Carpark not in use,1.272837,103.836918
87,OG Albert,"60 Albert Street, S(189969)",\$1.20/30min from 7am to 10.59pm,\$1.20/30min from 7am to 11pm,Charges same as weekdays,Charges same as weekdays,1.3023696000000002,103.8538787
88,Hotel Bencoolen,"47 Bencoolen Street, S(189626)",Free parking for Hotel's guests,Free parking for Hotel's guests,Free parking for Hotel's guests,Free parking for Hotel's guests,1.2991864,103.8500772
89,Lion City Hotel,"15 Tanjong Katong Road, S(436950)",Carpark closed,Carpark closed,Carpark closed,Carpark closed,1.3144923000000002,103.8949267
90,ACTION Theatre,"42 Waterloo Street, S(187951)",Carpark closed,Carpark closed,Carpark closed,Carpark closed,1.298372,103.850933
91,The Necessary Stage,"278 Marine Parade Road, S(449282)",HDB / URA parking rates,HDB / URA parking rates,HDB / URA parking rates,Free Parking,1.3048893,103.9096223
92,Toy Factory Productions,"15A Smith Street, S(058929)",HDB / URA parking rates,HDB / URA parking rates,HDB / URA parking rates,HDB / URA parking rates,1.2821016,103.844464
93,Singapore National Eye Centre (SNEC),"11 Third Hospital Avenue, S(168751)","\$0.036/min from 7am to 5.30pm, Additional \$3.00 Valet parking applicable to the normal parking fee",No Valet parking after 5.30pm,No Valet parking,No Valet parking,1.280899,103.8354919
94,ParkwayHealth Day Surgery and Medical Centre,"363 Balestier Road, S(329784)","\$1.04 for 1st hr, \$0.53 for next subsequent 30min from 8am to 4.59pm",\$1.55/entry from 5pm to 7.59am the following day,Charges same as weekdays,Charges same as weekdays,1.3244614,103.8506895
95,Singapore National Eye Centre (SNEC Balestier Branch),"363 Balestier Road, S(329784)",Carpark closed,Carpark closed,Carpark closed,Carpark closed,1.3244614,103.8506895
96,"The Galen, Singapore Science Park II","61 Science Park Road, S(117525)","\$1.60 for 1st hr, \$1.07 for next subsequent 30min from 7.30am to 7.30pm",Free parking from 7.30pm to 7.30am the following day,Free Parking,Free Parking,1.286416,103.783516
97,Keppel Bay Tower,"1 Harbourfront Avenue, S(098632)",\$1.03/30min from 7am to 7pm,"\$3.10/entry from 7pm to 1am the following day, \$3.10/hr from 1am to 7am",Charges same as weekdays,Charges same as weekdays,1.2648866,103.8182751
98,Jurong Crocodile & Reptile Paradise ,"241 Jalan Ahmad Ibrahim, S(629143)","\$2.00/entry from 8am to 6pm, Free parking from 6pm to 7.59am the following day","\$2.00/entry from 8am to 6pm, Free parking from 6pm to 7.59am the following day",Charges same as weekdays,Charges same as weekdays,1.32083,103.7089542
99,NUS Car Park 10A - CRISPS,Kent Ridge Road,\$1.20/hr from 8.30am to 7.30pm,Free Parking from 7.30pm to 8.30am the following day,\$1.20/hr with a Maximum Charge of \$2.60 from 8.30am to 5pm,Free Parking,1.2934337,103.7719271
100,NUS Car Park 4 - Raffles Hall / CFA Studios,Kent Ridge Crescent,"*\$0.0214/min from 8.30am to 7.30pm, maximum charge of \$1.284 for vehicles entering from 6pm to 7.30pm",*Free parking from 7.31pm to 8.29am the following day,"*\$0.0214/min up to a maximum charge of \$2.568 from 8.30am to 5pm, free parking from 5.01pm to 8.29am the following day",*Free parking whole day from 8.30am to 8.29am the following day,1.2979348,103.773175
101,NUS Car Park 5 - Sports and Recreation Centre,Sports Drive 2,"*\$0.0214/min from 8.30am to 7.30pm, maximum charge of \$1.284 for vehicles entering from 6pm to 7.30pm",*Free parking from 7.31pm to 8.29am the following day,"*\$0.0214/min up to a maximum charge of \$2.568 from 8.30am to 5pm, free parking from 5.01pm to 8.29am the following day",*Free parking whole day from 8.30am to 8.29am the following day,1.3006455,103.7746495
102,NUS Car Park 6B - University Hall,Lower Kent Ridge Road,"*\$0.0214/min from 8.30am to 7.30pm, maximum charge of \$1.284 for vehicles entering from 6pm to 7.30pm",*Free parking from 7.31pm to 8.29am the following day,"*\$0.0214/min up to a maximum charge of \$2.568 from 8.30am to 5pm, free parking from 5.01pm to 8.29am the following day",*Free parking whole day from 8.30am to 8.29am the following day,1.2971593,103.7819013
103,NUS Car Park 10 - Block SoC 1,Lower Kent Ridge Road,"*\$0.0321/min from 8.30am to 7.30pm, maximum charge of \$1.284 for vehicles entering from 6pm to 7.30pm",*Free parking from 7.31pm to 8.29am the following day,"*\$0.0321/min up to a maximum charge of \$2.568 from 8.30am to 5pm, free parking from 5.01pm to 8.29am the following day",*Free parking whole day from 8.30am to 8.29am the following day,1.2971593,103.7819013
104,NUS Car Park 12 - Hon Sui Sen Memorial Library,Hon Sui Sen Drive,"*\$0.0214/min from 8.30am to 7.30pm, maximum charge of \$1.284 for vehicles entering from 6pm to 7.30pm",*Free parking from 7.31pm to 8.29am the following day,"*\$0.0214/min up to a maximum charge of \$2.568 from 8.30am to 5pm, free parking from 5.01pm to 8.29am the following day",*Free parking whole day from 8.30am to 8.29am the following day,1.2927731000000002,103.7738717
105,NUS Car Park 15 - In front of Temask and Eusoff Halls,Kent Ridge Drive,"*\$0.0214/min from 8.30am to 7.30pm, maximum charge of \$1.284 for vehicles entering from 6pm to 7.30pm",*Free parking from 6.30pm to 8.29am the following day,*Free parking whole day from 8.30am to 8.29am the following day,*Free parking whole day from 8.30am to 8.29am the following day,1.2934337,103.7719271
106,NUS Car Park 16 - Lecture Theatre 11,Kent Ridge Drive,"*\$0.0214/min from 8.30am to 7.30pm, maximum charge of \$1.284 for vehicles entering from 6pm to 7.30pm",*Free parking from 7.31pm to 8.29am the following day,"*\$0.0214/min up to a maximum charge of \$2.568 from 8.30am to 5pm, free parking from 5.01pm to 8.29am the following day",*Free parking whole day from 8.30am to 8.29am the following day,1.2934337,103.7719271
107,NUS Car Park 10B - Prince George's Park Residences,Prince George's Park,"*\$0.0214/min from 8.30am to 7.30pm, maximum charge of \$2.568 for vehicles entering from 8.30am to 6pm and \$1.284 for vehicles entering from 6pm to 7.30pm",*Free parking from 7.31pm to 8.29am the following day,"*\$0.0214/min up to a maximum charge of \$2.568 from 8.30am to 5pm, free parking from 5.01pm to 8.29am the following day",*Free parking whole day from 8.30am to 8.29am the following day,1.2924835,103.7795706
108,NUS Car Park 11 - In front of IMRE,Research Link,"*\$0.0214/min from 8.30am to 6pm, \$1.284 for vehicles entering from 6pm to 7.30pm",*Free parking from 7.31pm to 8.29am the following day,"*\$0.0214/min up to a maximum charge of \$2.568 from 8.30am to 5pm, free parking from 5.01pm to 8.29am the following day",*Free parking whole day from 8.30am to 8.29am the following day,1.2949585,103.7749425
109,NUS Car Park 12A - Institute of Systems Science,"22 Heng Mui Keng Terrace, S(119615)","*\$0.0214/min from 8.30am to 7.30pm, maximum charge of \$2.568 for vehicles entering from 8.30am to 6pm and \$1.284 for vehicles entering from 6pm to 7.30pm",*Free parking from 7.31pm to 8.29am the following day,"*\$0.0214/min up to a maximum charge of \$2.568 from 8.30am to 5pm, free parking from 5.01pm to 8.29am the following day",*Free parking whole day from 8.30am to 8.29am the following day,1.2913685,103.7758791
110,One George Street,"1 George Street, S(049145)",\$2.50/30min from 7am to 6pm,\$3.60/entry after 6pm to 7am the following day,"\$2.50/30min from 7am to 1pm, \$3.60/entry from 1pm to 7am the following day",\$3.60/entry from 7am to 7am the following day,1.2859597,103.847848
111,Fairmont Singapore,"80 Bras Basah Road, S(189560)","\$2.20 for 1st 2hr, \$0.55 for next subsequent 15min from 8am to 6pm",\$3.00/entry from 6pm to 8am the following day,"\$2.20 for 1st 2hr, \$0.55 for next subsequent 15min from 8am to 8am the following day","\$2.20 for 1st 2hr, \$0.55 for next subsequent 15min from 8am to 8am the following day",1.293396,103.8534619
112,Singapore Turf Club (STC),"1 Turf Club Avenue Singapore Racecourse, S(738078)",\$3.00/entry from 9am to 5pm from Mon to Thurs,\$5.00/entry from 5pm to 8am the following day from Mon to Thurs,\$6.00/entry from 9am to 8pm from Fri to Sunday,\$6.00/entry from 9am to 8pm from Fri to Sunday,1.4218875,103.7644704
113,Safra Toa Payoh,"293 Lorong 6 Toa Payoh, S(319387)","(For Member): \$1.25/hr, \$0.32 for next subsequent 15min, (For Public): \$2.30/hr, \$0.58 for next subsequent 15min from 6am to 5.59pm","(For Member): \$2.40/entry, (For Public): \$4.00/entry from 6pm to 5.59am the following day",Charges same as weekdays,"(For Member): \$2.40/entry, (For Public): \$4.00/entry from 6am to 6am the following day",1.329911,103.854256
114,Alliance Francaise de Singapour,"1 Sarkies Road, S(258130)",\$5.00/entry from 7am to 6pm,\$5.00/entry from 6pm to 7am the following day,Charges same as weekdays,Charges same as weekdays,1.3141457,103.8370611
115,Hock Seng Building,"114 Lavender Street, S(338729)",*,*,*,*,1.3116417999999999,103.8632944
116,Marine Cove,"1000 East Coast Parkway, S(449876)",\$2.60/entry from 3am to 3am the following day,\$2.60/entry from 3am to 3am the following day,"\$2.60 for 1st 2hr, \$1.30 for next subsequent hr from 3am to 3am the following day","\$2.60 for 1st 2hr, \$1.30 for next subsequent hr from 3am to 3am the following day",1.3013854999999999,103.912858
117,Strand Hotel,"25 Bencoolen Street, S(189619)",Free parking for Hotel's guests,Free parking for Hotel's guests,Free parking for Hotel's guests,Free parking for Hotel's guests,1.2986765999999998,103.8497123
118,Raffles Town Club,"1 Plymouth Avenue, S(297753)","\$2.00 for 1st hr, \$1.50 till 5pm.",\$3.00/entry after 5 pm.,Charges same as weekdays,Charges same as weekdays,1.3216777,103.8248815
119,Orchard Grand Court,"131 Killiney Road, S(239571)","\$3.00 for 1st hr, \$1.50 for next subsequent 30min from 7am to 5.59pm",\$4.00/entry from 6pm to 6.59am,Charges same as weekdays,\$4.00/entry from 7am to 7am the following day,1.297335,103.8384394
120,Republic Polytechnic,"9 Woodlands Ave 9, S(738964)",\$1.00/hr from 7.01am to 10.30pm,\$1.00/hr from 10.31pm to 7.00am the following day,Charges same as weekdays,Charges same as weekdays,1.443092,103.7855793
121,MICA Building,"140 Hill Street, S(179369)",Private Car Park,Private Car Park,Private Car Park,Private Car Park,1.2907565,103.8481312
122,Naumi Hotel,"41 Seah Street, S(188396)","\$1.50 for 1st 30min, \$1.20 for next subsequent 30min from 8am to 5pm",\$3.00/entry from 5pm to 8am the following day,Charges same as weekdays,\$3.00/entry from 8am to 8am the following day,1.2959204,103.8551644
123,National Dental Centre,"5 Second Hospital Avenue, S(168938)",\$0.035/min from 7am to 9.59pm,\$2.14/entry from 10pm to 6.59am the following day,Charges same as weekdays,"\$0.018/min from 7am to 9.59pm, \$0.65/entry from 10pm to 6.59am the following day",1.279768,103.838629
124,Lasalle College of the Arts,"1 McNally Street, S(187940)","\$2.00 for 1st hr, \$0.05 for next subsequent min from 7am to 5pm","\$3.00/entry from 5pm to 11pm, \$2.00 for 1st hr, \$0.05 for next subsequent min from 11pm to 7am the following day",Charges same as weekdays,Charges same as weekdays,1.3025743,103.8513396
125,HortPark,"33 Hyderabad Road, S(119578)",\$0.60/30min from 6am to 10pm,"\$0.60/30min from 10pm to 7am the following day, maximum charge of \$5.00 for vehicles entering from 7pm to 10pm",Charges same as weekdays,Charges same as weekdays,1.278715,103.8013131
126,Marina Barrage,"260 Marina Way, S(018976)","\$0,025/min for the 1st 5hr, \$0.05/min for next subsequent hr from 5am to 6pm","\$0.02/min from 6pm to 12midnight, \$0.05/min from 12midnight to 5am the following day",Charges same as weekdays,Charges same as weekdays,1.2798007999999998,103.8696956
127,Singapore Recreation Club,"B Connaught Drive, S(179682)","\$2.00 for 1st hr, \$1.50 for next subsequent 30min from 7am to 5pm",\$3.00/entry from 5pm to 7am the following day,Charges same as weekdays,Charges same as weekdays,1.2921416,103.8538267
128,"West Coast Park (Carpark 1, 2 and 3)","34 West Coast Park, S(127711)",HDB / URA parking rates,HDB / URA parking rates,HDB / URA parking rates,HDB / URA parking rates,1.3167833,103.755092
129,ComfortDelGro Driving Centre,"205 Ubi Avenue 4, S(408805)",*,*,*,*,1.33562,103.896641
130,Prudential Tower,"30 Cecil Street, S(049712)",Season Parking Only,Season Parking Only,Season Parking Only,Season Parking Only,1.2828361,103.8499432
131,Heartland Mall,"205 Hougang Street 21, S(530205)",\$1.00/hr from 7am to 10.30pm,\$2.00/hr from 10.30pm to 7am the following day,Charges same as weekdays,Charges same as weekdays,1.3594258,103.8851749
132,St Regis Singapore,"29 Tanglin Road, S(247911)","\$4.00 for 1st hr, \$2.00 for next subsequent 30min from 7am to 5pm",\$5/entry from 5pm to 7am the following day,Charges same as weekdays,\$5.00/entry from 7am to 7am the following day,1.3056756,103.8260261
133,Abacus Plaza,"3 Tampines Central 1, S(529540)",\$2.00/hr form 8am to 5pm,\$2.50/entry from 5pm to 8am the following day,Charges same as weekdays,\$2.50/entry from 8am to 8am the following day,1.352687,103.9429503
134,LHK 2 Building,"76 Playfair Road, S(367996)","\$1.20 for 1st hr, \$0.60 for next subsequent 30min from 8am to 5pm",\$2.00/entry from 5pm to 8am the following day,Charges same as weekdays,\$2.00/entry,1.3365023,103.8865882
135,Pasir Panjang Ferry Terminal,"35 West Coast Highway, S(117862)","\$1.07 for 1st hr, \$1.07 for next subsequent hr from 6am to 4.59pm","\$2.14/entry from 5pm to 11.59pm, \$2.14/entry from 12midnight to 5.59am",Charges same as weekdays,Charges same as weekdays,1.352083,103.819836
136,Jackson Square,"11 Lorong 3 Toa Payoh, S(319579)",\$0.50/30min from 8am to 5pm,\$0.50/30min from 5pm to 8am the following day,Charges same as weekdays,\$1.00/entry from 8am to 8am the following day,1.3369102,103.848618
137,Jurong Medical Centre,"60 Jurong West Central 3, S(648346)","\$2.15 for 1st hr, \$1.07 for next subsequent 30min from 8am to 5pm","\$2.15 for 1st hr, \$1.07 for next subsequent 30min from 5pm to 8am the following day",Charges same as weekdays,Charges same as weekdays,1.3405363,103.7045809
138,TradeHub 21,"8 Boon Lay Way, S(609964)",\$1.20/hr from 7am to 7pm,Free Parking from 7pm to 12midnight,Free Parking,Free Parking,1.3274751,103.753546
139,Sin Ming Plaza,"6 Sin Ming Road, S(575585)","\$1.50 for 1st hr, \$0.75 for next subsequent 30min from 8am to 5pm","\$1.50 for 1st hr, \$0.75 for next subsequent 30min from 5pm to 8am the following day",Charges same as weekdays,Charges same as weekdays,1.352852,103.836423
140,Sembawang Clubhouse,"43 Admiralty Road West, S(759962)",Free Parking,Free Parking,Free Parking,Free Parking,1.4695251,103.8195851
141,Taman Jurong Shopping Centre,"399 Yung Sheng Road, S(610399)",\$0.50/30min from 7am to 4.59pm,"\$0.50/30min up to a maximum charge of \$1.00 from 5pm to 11.59pm, \$0.50/30min up to a maximum charge of \$2.00 from 12midnight to 6.59am the following day","\$0.50/30min up to a maximum charge of \$1.00 from 7am to 11.59pm, \$0.50/30min up to a maximum charge of \$2.00 from 12midnight to 6.59am the following day","\$0.50/30min up to a maximum charge of \$1.00 from 7am to 11.59pm, \$0.50/30min up to a maximum charge of \$2.00 from 12midnight to 6.59am the following day",1.3348269,103.7204767
142,Changi Hotel,"80 Changi Road, S(419715)",Carpark closed,Carpark closed,Carpark closed,Carpark closed,1.3163448,103.9005345
143,Hotel 1929,"50 Keong Saik Road, S(089154)",HDB / URA parking rates,HDB / URA parking rates,HDB / URA parking rates,HDB / URA parking rates,1.2808016000000002,103.8417811
144,New Majestic Hotel,"31 Bukit Pasoh Road, S(089845)",HDB / URA parking rates,HDB / URA parking rates,HDB / URA parking rates,HDB / URA parking rates,1.2792949999999998,103.840375
145,Pan Pacific Orchard,"10 Claymore Road, S(229540)","\$5.00 for 1st hr, \$1.50 for next subsequent 30min from 7am to 4.59pm",\$5.50/entry from 5pm to 6.59am,Charges same as weekdays,\$5.50/entry from 7am to 7am the following day,1.3076066000000002,103.8301208
146,The Scarlet Hotel,"33 Erskine Road, S(069333)",HDB / URA parking rates,HDB / URA parking rates,HDB / URA parking rates,HDB / URA parking rates,1.2807688999999998,103.8454104
147,Hangout @ Mount Emily,"10A Upper Wilkie Road, S(228119)",Free parking for Hotel's guests,Free parking for Hotel's guests,Free parking for Hotel's guests,Free parking for Hotel's guests,1.3033771,103.8477547
148,Garden Hotel,"14 Balmoral Road, S(259800)",Free parking for Hotel's guests,Free parking for Hotel's guests,Free parking for Hotel's guests,Free parking for Hotel's guests,1.3151528,103.8333595
149,Robertson Quay Hotel,"15 Merbau Road, S(239032)","\$1.50 for 1st hr, \$0.50 for next subsequent 30min from 5am to 5pm",\$3.00/entry from 5pm to 8am the following day,Charges same as weekdays,Charges same as weekdays,1.2911252,103.8417868
150,Singapore Indoor Stadium,"2 Stadium Walk, S(397691)",\$0.54/30min from 7am to 7pm,\$0.54/30min from 7pm to 7am,Charges same as weekdays,Charges same as weekdays,1.300506,103.874585
151,HDB Blk 12A (Dover Close East),"12A Dover Close East, S(131012)",HDB / URA parking rates,HDB / URA parking rates,HDB / URA parking rates,HDB / URA parking rates,1.3043308,103.7852345
152,Whitley Road URA Car Park,Whitley Road,HDB / URA parking rates,HDB / URA parking rates,HDB / URA parking rates,HDB / URA parking rates,1.3271109,103.838142
153,WestWay,"27 West Coast Highway, S(117867)",\$0.75/30min from 7am to 7.59pm,"\$0.75/30min from 8pm to 23.59pm, \$0.75/30min from 12midnight to 6.59am the following day",Charges same as weekdays,Charges same as weekdays,1.283143,103.7805309
154,Bedok Central Blk 215A (Multi-Storey Car Park),"215A Bedok Central, S(461215)",\$0.50/30min from 7am to 10.30pm,\$0.50/30min up to a maximum charge of \$2.00/day from 10.30pm to 7am the following day,Charges same as weekdays,Charges same as weekdays,1.326316,103.934199
155,Tampines 1,"10 Tampines Central 1, S(529536)","\$1.10 for 1st hr, \$0.32/15min for 2nd hr, \$0.35 for next subsequent 15min from 6am to 12.30am","\$1.10 for 1st hr, \$0.32/15min for 2nd hr, \$0.35 for next subsequent 15min from 6am to 12.30am","\$2.20 for 1st 2hr, \$0.35/15min for next subsequent hr, \$0.35 for next subsequent 15min from 6am to 12 midnight","\$2.20 for 1st 2hr, \$0.35/15min for next subsequent hr, \$0.35 for next subsequent 15min from 6am to 12 midnight from 6am to 12 midnight",1.3542047,103.9450223
156,Lavender Food Square,"380 Jalan Besar, S(209000)",Carpark not in use,Carpark not in use,Carpark not in use,Carpark not in use,1.31295,103.8600594
157,Six Battery Road,"6 Battery Road, S(049909)",\$3.10/30min from 7am to 5.59pm,\$3.70/entry from 6pm to 6.59am the following day,"\$3.10/30min from 7am to 12.59pm, \$3.70/entry from 1pm to 7am the following day",\$3.70/entry from 7am to 7am the following day,1.2857011,103.8517191
158,Safra Jurong,"333 Boon Lay Way, S(649848)","(For Member): \$0.95 for 1st hr, \$0.24 for next subsequent 15min, (For Public): \$2.05 for 1st hr, \$0.52 for next subsequent 15min from 6am to 6pm","(For Member): \$1.90/entry, (For Public): \$4.00/entry from 6pm to 6am the following day",Charges same as weekdays,"(For Member): \$1.90/entry, (For Public): \$4.00/entry from 6am to 6am the following day",1.334908,103.706428
159,Sentosa Cove Village,"1 Clove Avenue, S(098537)",\$0.02/min from 7am to 5pm,\$2.40/entry from 5.01pm to 6.59am the following day,Charges same as weekdays,Charges same as weekdays,1.352083,103.819836
160,Icon Village,"12 Gopeng Street, S(078877)",\$1.50/30min from 7am to 5pm,\$3.00/entry from 5pm to 7am the following day,"\$1.50/30min from 7am to 1pm, \$3.00/entry from 1pm to 7am the following day",\$3.00/entry from 7am to 7am the following day,1.2753421999999999,103.8444743
161,Ion Orchard,"2 Orchard Turn, S(238801)","\$2.67 for 1st hr, \$1.28 for next subsequent 30min from 8am to 4.59pm from Mon to Thurs","\$3/entry from 5pm to 11.59pm, \$1.07/hr from 12midnight to 7.59am the following day from Mon to Thurs","\$2.56 for 1st hr, \$1.88 for next subsequent 30min from 8am to 4.59pm, \$3.74/entry from 5pm to 11.59pm, \$1.07/hr from 12midnight to 7.59am the following day from Fri to Sun","\$2.56 for 1st hr, \$1.88 for next subsequent 30min from 8am to 4.59pm, \$3.74/entry from 5pm to 11.59pm, \$1.07/hr from 12midnight to 7.59am the following day from Fri to Sun",1.3039288,103.8319512
162,One Marina Boulevard,"1 Marina Boulevard, S(018989)",\$2.14/30min from 7am to 5.30pm,\$3.21/entry from 5.30pm to 11pm,"\$2.14/30min from 7am to 1pm, \$3.21/entry from 1pm to 11pm",\$3.21/entry from 7am to 11pm,1.2823870000000002,103.852437
163,Orchard Central,"181 Orchard Road, S(238896)","\$2.00 for 1st hr, \$1.00 for next subsequent 30min from 2am to 6pm","\$4.50 for 1st 3hr, \$1.50 for next subsequent 30min from 6pm to 2am the following day",Charges same as weekdays,"\$4.50 for 1st 3hr, \$1.50 for next subsequent 30min from 2am to 2am the following day",1.3007245,103.8397385
164,Hougang Plaza,"1189 Upper Serangoon Road, S(534785)",*Building Demolished*,*Building Demolished*,*Building Demolished*,*Building Demolished*,1.37073,103.895131
165,City Square Mall,"180 Kitchener Road, S(208539)","\$1.60 for 1st hr, \$0.80 for next subsequent 30min from 7am to 6pm",\$3.00/entry from 6.00pm to 4.00am the following day,"\$1.60 for 1st hr, \$0.80 for next subsequent 30min from 7am to 6pm, \$3.50/entry from 6pm to 4.00am the following day","\$1.60 for 1st hr, \$0.80 for next subsequent 30min from 7am to 6pm, \$3.50/entry from 6pm to 4.00am the following day",1.3114943000000001,103.8566704
166,313@Somerset,"313 Orchard Road, S(238895)","\$2.14 for 1st hr, \$1.07 for next subsequent 30min from 7am to 6pm","\$4.82 for 1st 3hr, \$1.61 for next subsequent 30min from 6pm to 7am the following day",Charges same as weekdays,"\$4.82 for 1st 3hr, \$1.61 for next subsequent 30min",1.3010308000000002,103.8382552
167,Senoko Fishery Port,"31 Attap Valley Road, S(759908)",\$2.70/entry from 7am to 7am the following day,\$2.70/entry from 7am to 7am the following day,\$2.70/entry from 7am to 7am the following day,\$2.70/entry from 7am to 7am the following day,1.461703,103.792447
168,Fusionopolis,"1 Fusionopolis Way, S(138632)",\$1.00/30min from 7am to 6pm,\$1.00/entry from 6pm to 7am the following day,\$1.00/entry from 7am to 7am the following day,\$1.00/entry from 7am to 7am the following day,1.2998611999999998,103.7885127
169,Wilkie Edge,"8 Wilkie Road, S(228095)",\$1.50/30min from 7am to 5.59pm,"\$1.00/30min from 6pm to 10.59pm, \$4.10/entry from 11pm to 6.59am the following day","\$1.50/30min from 7am to 1pm, \$4.10/entry from 1.00pm to 6.59am the following day",\$4.10/entry from 7am to 6.59am the following day,1.3021037,103.8494104
170,"Hotel Michael, Resorts World Sentosa","8 Sentosa Gateway, S(098269)","\$7.00 for 1st hr, \$1.00 for next subsequent 30min from 7am to 7pm from Mon to Thurs",\$6.00/entry from 7pm to 7am the following day from Mon to Thurs,"\$8.00 for 1st hr, \$2.00 for next subsequent 30min from 7am to 7pm, \$8.00/entry from 7pm to 6.59am the following day on Fri to Sat and eve of PH",Charges same as Saturdays,1.256752,103.820331
171,"Festive Hotel, Resorts World Sentosa","8 Sentosa Gateway, S(098269)","\$7.00 for 1st hr, \$1.00 for next subsequent 30min from 7am to 7pm from Mon to Thurs.",\$6.00/entry from 7pm to 7am the following day from Mon to Thurs,"\$8.00 for 1st hr, \$2.00 for next subsequent 30min from 7am to 7pm, \$8.00/entry from 7pm to 6.59am the following day on Fri to Sat and eve of PH",Charges same as Saturdays,1.256752,103.820331
172,"Hard Rock Hotel, Resorts World Sentosa","8 Sentosa Gateway, S(098269)","\$7.00 for 1st hr, \$1.00 for next subsequent 30min from 7am to 7pm from Mon to Thurs",\$6.00/entry from 7pm to 7am the following day from Mon to Thurs,"\$8.00 for 1st hr, \$2.00 for next subsequent 30min from 7am to 7pm, \$8.00/entry from 7pm to 6.59am the following day from Fri to Sat and eve of PH",Charges same as Saturdays,1.256752,103.820331
173,Capella Singapore,"1 The Knolls Sentosa Island, S(098297)","\$8.00 for first 2hr, \$1.00 for next subsequent 30min from 8am to 5pm","\$8.00 for the first 2hr, \$1.00 for next subsequent 30min from 5pm to 8am the following day",Charges same as weekdays,Charges same as weekdays,1.2494309,103.8244405
174,Bugis+,"201 Victoria Street, S(188067)","\$1.28 for 1st hr, \$0.54 for next subsequent 15min from 8am to 5.59pm from Mon to Fri","\$3.21/entry from 6pm to 7.59am the following day from Mon to Thurs, \$3.21 for 1st 2hr, \$0.54 for next subsequent 15min from 6pm to 7.59am the following day on Fri","\$3.21 for 1st 2hr, \$0.54 for next subsequent 15min from 8am to 8am the following day","\$3.21 for 1st 2hr, \$0.54 for next subsequent 15min from 8am to 8am the following day",1.2996492,103.8542702
175,Kopitiam Square,"10 Sengkang Square Kopitiam Square, S(544829)",\$1.10/hr from 8am to 10pm,\$0.30/30min from 10pm to 8am the following day,Charges same as weekdays,Charges same as weekdays,1.3913871000000002,103.8937131
176,German Centre,"25 International Business Park,",\$2.50/hr from 7am to 4.59pm,\$2.50/entry from 5pm to 6.59am,"\$2.00/hr from 7am to 12.59am, Free parking after 1pm",Free parking,1.3251449,103.7466936
177,The Village Centre,"3 South Buona Vista Road, S(118136)",\$1.30/hr from 7.01am to 5pm from Mon to Thurs,"\$2.50/entry from 5.01pm to 10.30pm, \$3.10/entry from 10.31pm to 7am from Mon to Thurs","\$1.30/hr from 7.01am to 5pm, \$3.10/entry from 5.01pm to 7am from Fri to Sat","\$2.70/entry from 7.01am to 10.30pm, \$3.10/entry from 10.31pm to 7.01am",1.2797706,103.7860269
178,Punggol Plaza,"168 Punggol Field, S(820168)","Free for 1st 15min, \$1.00 for next subsequent hr from 8am to 5pm","Free for 1st 15min, \$1.00 for next subsequent hr from 5pm to 8am the following day",Charges same as weekdays,Charges same as weekdays,1.3941946000000005,103.9131318
179,Temasek Club,"131 Rifle Range Road, S(588406)","\$1.20 for the first hr, \$0.30 for next subsequent 15min from 7am to 4.59pm","\$2.50 for the first hr, \$0.30 for next subsequent 15min from 5pm to 7am the following day","\$2.50 for the first hr, \$0.30 for next subsequent 15min from 7am to 7am the following day","\$2.50 for the first hr, \$0.30 for next subsequent 15min fromm 7am to 7am the following day",1.3463996,103.7805973
180,Marina Bay Sands (MBS),"10 Bayfront Ave, S(018970)","\$7.00 for 1st hr, \$1.00 for next subsequent 30min up to a maximum charge of \$26.00 from 7am to 7pm, \$6.00/day for guests staying at the hotel","\$7.00/entry from 7pm to 7am the following day, \$6.00/day for guests staying at the hotel","\$8.00 for 1st hr, \$1.00 for next subsequent 30min up to a maximum charge of \$26.00 from 7am to 7pm, \$6.00/day for guests staying at the hotel","\$8.00 for 1st hr, \$1.00 for next subsequent 30min up to a maximum charge of \$26.00 from 7am to 7pm, \$6.00/day for guests staying at the hotel",1.2861964,103.8592773
181,Millenia Walk (Basement Car Park),"9 Raffles Boulevard, S(039596)","\$3.30 for 1st hr, \$1.10 for next subsequent 30min from 7am to 6pm",\$2.20/entry from 6pm to 7am the following day,"\$2.20 for 1st 2hr, \$1.10 for next subsequent hr from 7am to 7am the following day","\$2.20 for 1st 2hr, \$1.10 for next subsequent hr from 7am to 7am the following day",1.2927292,103.859401
182,Bukit Timah Plaza,"1 Jalan Anak Bukit, S(588996)",\$1.40/hr from 7.30am to 5pm,\$2.40/entry from 5pm to 7.30am the following day,Charges same as weekdays,"\$2.40 for the 1st 3hr, \$1,40 for the next subsequent hr from 7.30am to 5pm, \$2.40/entry from 5pm to 7am the following day",1.3386026000000002,103.7785976
183,MacRitchie Reservoir Park,"Reservoir Road, S(570000)",\$0.02/min from 7am to 7am the following day,\$0.02/min from 7am to 7am the following day,Charges same as weekdays,Charges same as weekdays,1.3409875,103.8328531
184,*Scape,"2 Orchard Link, S(237978)",\$2.05/hr from 7am to 4.59pm,"\$5.15 for 1st 3hr, \$2.05 for next subsequent hr from 5pm to 6.59am the following day",\$2.05/hr from 7am to 7am the following day,"\$2.05/hr from 7am to 4.59pm, \$5.15 for 1st 3hr, \$2.05 for next subsequent hr from 5pm to 6.59am the following day",1.3010389999999998,103.8357832
185,Samsung Hub,"3 Church Street, S(049483)",\$2.20/30min from 7am to 6pm,\$3.20/entry from 6pm to 12midnight,\$3.20/entry from 7am to 12midnight,\$3.20/entry from 7am to 12midnight,1.2832446000000002,103.8496597
186,Nex Mall,"23 Serangoon Central, S(556083)","\$1.30 for 1st hr, \$0.65 for next subsequent 30min from 7am to 5pm","\$1.30 for 1st hr, \$0.65 for next subsequent 30min from 5pm to 7am the following day","\$1.40 for 1st hr, \$0.70 for next subsequent 30min from 7am to 7am the following day","\$1.40 for 1st hr, \$0.70 for next subsequent 30min from 7am to 7am the following day",1.3504472,103.8723861
187,The Lawn @ Marina Bay,"12 Marina Boulevard, S(018982)",\$0.80/10min from 6am to 6pm,"\$3.00 for 1st four hr, \$0.25 for next subsequent 10min from 6pm to 6am.","\$3.00 for 1st four hr, \$0.25 for next subsequent 10min.","\$3.00 for 1st four hr, \$0.25 for next subsequent 10min.",1.280059,103.8552649
188,Kreta Ayer People's Theatre ,"30A Kreta Ayer Road, S(088997)",\$1.00/30min from 7am to 5pm,\$0.50/30min from 5pm to 10pm,Same as Weekdays,Same as Weekdays,1.2814143999999998,103.842787
189,URA Bayfront Car Park,"11 Marina Boulevard, S(018940)",\$2.00/30min from 7am to 6pm,\$1.60/hr from 6pm to 7am,"\$2.00/30min from 7am to 1pm, \$0.80/30min from 1pm to 7am the following day",\$0.80/30min from 7am to 7am the following day,1.2802848,103.856454
190,Park Regis Singapore,"23 Merchant Road, S(058268)","\$5 for 1st hr, \$1.50 for next subsequent 30min from 8am to 5pm","\$5 for 1st hr, \$1.50 for next subsequent 30min from 5pm to 8am the following day",Charges same as weekdays,Charges same as weekdays,1.2880855,103.8445451
191,Chevron House,"30 Raffles Place, S(048622)",\$3.00/30min from 7.30am to 6.29pm,\$3.50/entry from 6.30pm to 7.30am the following day,"\$3.00/30min from 7.30am to 1pm, \$3.50/entry from 1pm to 7.30am the following day",\$3.50/entry from 7.30am to 7.30am the following day,1.2841089,103.852015
192,Singapore Cruise Center,"1 Maritime Square, HarbourFront Centre","\$1.20 for 1st hr, \$0.60 for next subsequent 30min from 7am to 6pm","\$2.04/hr from 1am to 7am, \$2.40/entry from 6pm to 1am the following day",Charges same as weekdays,Charges same as weekdays,1.264325,103.820306
193,Bedok Point,"799 New Upper Changi Road,","\$1.20 for 1st hr, \$0.70 for next subsequent 30min from 7am to 7am the following day","\$1.20 for 1st hr, \$0.70 for next subsequent 30min from 7am to 7am the following day",Charges same as weekdays,Charges same as weekdays,1.3249573,103.9323454
194,Bestway Building,"12 Prince Edward Road, S (079212)",\$2.00/hr from 7am to 6pm,\$3.00/entry from 6pm to 7am the following day,\$3.00/entry from 7am to 7am the following day,\$3.00/entry from 7am to 7am the following day,1.2737183,103.8483816
195,"NTU Car Park (C, D, E, F, G, I, J, P, Q, R, S, Hall 7)","50 Nanyang Avenue, S(639798)","\$0.015/min from 8am to 6pm, maximum charge of \$3.60/day",Free parking after 6pm,Free Parking,Free Parking,1.3477484,103.6828574
196,NTU Car Park (ADM),"50 Nanyang Avenue, S(639798)","\$0.15/min from 8am to 6pm, maximum charge of \$3.60/day",Free parking after 6pm,Free Parking,Free Parking,1.3477484,103.6828574
197,NTU Car Park (SPMS),"50 Nanyang Avenue, S(639798)","\$0.15/min from 8am to 6pm, maximum charge of \$3.60/day",Free parking after 6pm,Free Parking,Free Parking,1.3477484,103.6828574
198,NTU Car Park (Canteen 2),"50 Nanyang Avenue, S(639798)",Free Parking,Free Parking,Free Parking,Free Parking,1.3477484,103.6828574
199,"NTU Car Park (H3, H4, H6, H8, H16, GH, NEC, SRC)","50 Nanyang Avenue, S(639798)",Free Parking,Free Parking,Free Parking,Free Parking,1.3477484,103.6828574
200,"NTU Car Park (Nanyang Heights, Nanyang Meadow, Nanyang View)","50 Nanyang Avenue, S(639798)",Free Parking,Free Parking,Free Parking,Free Parking,1.3477484,103.6828574
201,The Clementi Mall,3155 Commonwealth Avenue West S(129588),"\$1.60 for 1st hr, \$0.80 for next subsequent 30min from 9am to 11pm","\$1.60 for 1st hr, \$0.80 for next subsequent 30min from 9am to 11pm",Charges same as weekdays,Charges same as weekdays,1.314918,103.7643089
202,Khoo Teck Puat Hospital,"90 Yishun Central, S(768828)",\$0.03/min from 8am to 5pm,\$0.03/min from 5pm to 8am the following day,Charges same as weekdays,Charges same as weekdays,1.4243583999999998,103.838059
203,NCS Hub,"5 Ang Mo Kio Street 62, S (569141)","\$1.00 for 1st hr, \$0.70 for subsequent hr up to a maximum charge of \$10.00","\$1.00 for 1st hr, \$0.70 for subsequent hr up to a maximum charge of \$10.00",Charges same as weekdays,Charges same as weekdays,1.387928,103.844052
204,Golden Mile Tower,6001 Beach Road S(199589),\$1.80/hr from 8am to 5pm,\$2.25/entry from 5pm to 8am the following day,Charges same as weekdays,\$2.40/entry from 8am to 8am the following day,1.3019627,103.8640868
205,Craig Place,20 Craig Road S(089692),"\$3.00 for 1st hr, \$0.05/min for next subsequent hr from 7am to 6pm",\$3.50/entry from 6pm to 7am the following day,Charges same as weekdays,\$2.50/entry from 7am to 7am the following day,1.278053,103.842299
206,Seah Im Carpark,2 Seah Im Road S(099114),\$0.50/30min from 7am to 10.30pm,\$0.50/30min from 10.30pm to 7am the following day,Charges same as weekdays,Charges same as weekdays,1.2666678999999998,103.818942
207,Dawson Place,57 Dawson Road S(142057),\$0.50/30min from 7am to 5pm,"\$0.50/30min from 5pm to 12midnight up to a maximum charge of \$1.00, \$0.50/30min from 12midnight to 7am up to a maximum charge of \$2.00",\$0.50/30min from 7am to 7am the following day,\$0.50/30min from 7am to 7am the following day,1.2927302,103.8110083
208,Crown Centre,557 Bukit Timah Road S(269694),"\$2.00 for 1st hr, \$1.00 for next subsequent 30min from 8am to 5pm","\$2.00 for 1st hr, \$1.00 for next subsequent 30min from 5pm to 8am the following day",Charges same as weekdays,Charges same as weekdays,1.3230427,103.8111879
209,Hong Lim Complex,531 Upper Cross Street S(050531),\$1.20/30min from 7am to 5pm,"\$0.50/30min from 5pm to 10.30pm, \$4.00/entry from 10.30pm to 7.00am the following day",Charges same as weekdays,"\$0.50/30min from 7am to 10.30pm, \$4.00/entry from 10.30pm to 7.00am the following day",1.2841715,103.8454351
210,Thye Hong Centre,2 Leng Kee Road S(159086),"\$2.00/30min or part thereof from 7.30am to 11am, \$1.20/hr or part thereof from 11am to 6pm",\$2.00/entry from 6pm to 11am the following day,"\$2.00/30min or part thereof from 7.30am to 11am, \$1.20/hr or part thereof from 11am to 1pm, \$2.00/entry after 1pm",\$2.00/entry from 7.30am to 7.30am the following day,1.2910046999999998,103.8148873
211,6 Raffles Quay,6 Raffles Quay S(048580),\$2.50/30min from 7am to 8pm,\$3.00/entry after from 8pm to 11pm,"\$2.50/30min from 7am to 3pm, \$3.00/entry after from 3pm to 7pm",carpark close,1.2817911,103.8514035
212,One Raffles Quay,1 Raffles Quay S(048583),\$1.07/10min block or part thereof from 6am to 5pm,"\$3.21 for 1st 4hr, \$0.27/10min block or part thereof from 5pm to 6am the following day","\$3.21 for 1st 4hr, \$0.27/10min block or part thereof from 6am to 6am the following day","\$3.21 for 1st 4hr, \$0.27/10min block or part thereof from 6am to 6am the following day",1.281092,103.8520854
213,The Sail @ Marina Bay,2 Marina Boulevard S(018987),\$4/hr from 6am to 6pm,\$1.50/hr from 6pm to 5.59am the following day,"\$4/hr from 6am to 5.59pm, \$1.50/hr from 1pm onwards",\$1.50/hr,1.2813618999999998,103.8526799
214,Marina Bay Financial Centre Tower 2,10 Marina Boulevard S(018983),\$6.42/hr 6am to 6pm,"\$3.21 for 1st 4hr, \$0.27/10min block or part thereof from 6pm to 6am the following day","\$3.21 for 1st 4hr, \$0.27/10min block or part thereof from 6am to 6am the following day","\$3.21 for 1st 4hr, \$0.27/10min block or part thereof from 6am to 6am the following day",1.2792463,103.8541121
215,Keck Seng Tower,133 Cecil Street S(069535),\$2.50/30min from 8am to 6pm,\$2.50/entry from 6pm to 10pm,"\$2.50/30min from 8am to 2pm, \$2.50/entry from 2pm to 10pm",Closed,1.2803125,103.8489856
216,10 Winstedt,10 Winstedt Road S(227977),\$0.80/30min from 6am to 6pm or part thereof,\$2.00/entry from 6pm to 3am the following day,"\$1.00/30min from 6am to 3pm or part thereof, \$2.00/entry from 3pm to 3am the following day",\$2.00/entry from 6am to 3am the following day,1.3099806,103.8418875
217,Balmoral Plaza,271 Bukit Timah Road S(259708),\$2.00/hr from 8am to 5pm,"\$2.50/entry from 5pm to 12midnight, \$2.00/hr from 12midnight to 8am the following day",Charges same as weekdays,\$2.00/entry from 8am to 8am the following day,1.316447,103.8354136
218,Maxwell House,38 Maxwell Road S(069116),\$1.40/30min or part thereof from 6.30am to 5pm,"\$3.00/entry from 5pm to 10pm, \$2.00/entry from 10pm to 6.30am the following day",Charges same as weekdays,"\$3.00/entry from 6.30am to 10pm, \$2.00/entry from 10pm to 6.30am the following day",1.278665,103.8449493
219,1001 Bukit Merah Lane 3,1001 Bukit Merah Lane 3 S(159718),\$0.50/30min from 7am to 10.30pm,\$0.50/30min or up to a maximum charge of \$4.00 from 10.30pm to 7am the following day,Charges same as weekdays,Charges same as weekdays,1.2844593999999998,103.8063389
220,Woodlands Mart,Woodlands Avenue 6 S(730768),\$0.50/30min from 8am to 5pm,\$0.50/30min from 5pm to 8am the following day,Charges same as weekdays,Charges same as weekdays,1.4389498,103.8029731
221,Mount Sophia,Mount Sophia,"\$1.40/30min from 8am to 9.59am, \$1.40/hr from 10am to 9.59pm",\$3.00/entry from 10pm to 7.59am the following day,"\$1.40/hr from 8am to 9.59pm, \$3.00/entry from 10pm to 7.59am the following day","\$1.40/hr from 8am to 9.59pm, \$3.00/entry from 10pm to 7.59am the following day",1.3011912,103.846599
222,Changi City Point,"5 Changi Business Park Central 1, S(486038)",\$0.70/30min from 7.01am to 6pm,\$2.50/entry from 6.01pm to 7am the following day,"\$2.50 for 1st 2hr, \$1.20 for next subsequent 30min from 7.01am to 5pm, \$2.50/entry from 5.01pm to 7am the following day","\$2.50 for 1st 2hr, \$1.20 for next subsequent 30min from 7.01am to 5pm, \$2.50/entry from 5.01pm to 7am the following day",1.3343368999999998,103.962458
223,Singapore Swimming Club,"45 Tanjong Rhu Road, S(436899)","\$1.50 for 1st hr, \$0.02 for next subsequent min from 6am to 6pm","\$2.03 for 1st hr, \$0,03 for next subsequent min from 6pm to 6am the following day",Charges same as weekdays,Charges same as weekdays,1.2969613000000002,103.8813718
224,HarbourFront Tower 1,"1 HarbourFront Place, S(098633)",\$1.05/30min from 7am to 7pm,"\$3.10/entry from 7pm to 1am the following day, \$3.10/hr from 1am to 7am","\$1.05/30min from 7am to 1pm, \$1.20 for 1st hr, \$0.60 for subsequent 30min from 1pm to 6pm, \$2.40/entry from 6pm to 1am the following day, \$3.10/hr from 1am to 7am","\$1.20 for 1st hr, \$0.60 for subsequent 30min from 7am to 6pm, \$2.40/entry from 6pm to 1am the following day, \$3.10/hr from 1am to 7am",1.2648081,103.8192714
225,The Fleming,"59 Science Park Drive, S(118239)","\$0.56 for 1st hr, \$1.07 for next subsequent hr from 7.30am to 7.30pm",Carpark Closed after 7.30pm daily,Carpark Closed,Carpark Closed,1.29239,103.786749
226,TUV SUD PSB,"1 Science Park Drive, S(118221)","\$0.56 for 1st hr, \$1.07 for every subsequent hr from 7.30am to 7.30pm","\$2.00/entry from 7pm to 3am the following day, \$20.00/entry from 3am to 6am",Charges same as weekdays,"\$2.00/entry from 6am to 3am the following day, \$20.00/entry from 3am to 6am",1.291401,103.785218
227,991 Alexandra Road,"991B Alexandra Road, S(119970)",\$1.60/hr from 6am to 7pm,Free parking limited to 6 lots,Free parking limited to 6 lots,Free parking limited to 6 lots,1.273889,103.803415
228,DSO National Laboratories,"20 Science Park Drive, S(118230)",Free parking limited to 6 lots,"\$2.00/entry from 6pm to 7am the following day for cars, \$2.50/entry from 6pm to 7am the following day for commercial vehicles",Charges same as weekdays,\$2.50/entry from 7am to 7am the following day,1.2892506,103.7887844
229,Golden Agri Plaza,"108 Pasir Panjang Road, S(118535)","\$1.20/hr from 7am to 6pm for cars, \$2.00/hr from 7am to 6pm for commercial vehicles",\$2.00/entry from 10.01pm to 6.59am the following day,Charges same as weekdays,\$2.00/entry from 12midnight to 11.59pm,1.2765540000000002,103.79441690000002
230,Inno Centre,"1003 Bukit Merah Central, S(159836)",\$0.60/30min from 7am to 10pm,"\$1.20/hr from 7pm to 7am the following day for cars, \$2.20/hr from 7pm to 7am the following day for commercial vehicles",Charges same as weekdays,Charges same as weekdays,1.2834073,103.8144656
231,Tan Boon Liat Building,"315 Outram Road, S(169074)","\$1.20/hr from 7am to 7pm for cars, \$2.20/hr from 7am to 7pm for commercial vehicles","\$2.00/entry from 7pm to 10.30pm, \$4.00/entry from 10.30pm to 7am the following day","\$2.50/entry from 7am to 10.30pm, \$4.00/entry from 10.30pm to 7am the following day","\$2.50/entry from 7am to 10.30pm, \$4.00/entry from 10.30pm to 7am the following day",1.2873156,103.8340344
232,Prosper House,"101 Lorong 23 Geylang, S(388399)",\$1.20/hr from 7am to 7pm,\$0.75/30min from 7pm to 7am the following day,Charges same as weekdays,Charges same as weekdays,1.3176071000000005,103.8810157
233,26 Tai Seng Street,"26 Tai Seng Street, S(534057)",\$0.75/30min from 7am to 7pm,"\$3.00/entry from 6.31pm to 11.59pm, Additional Overnight Charge at \$10.00 from 12midnight to 6.59am",Charges same as weekdays,\$5.00/enty from 7am to 12midnight,1.3354238,103.889142
234,Sakae Building,"28 Tai Seng Street, S(534106)",\$3.00/hr from 7am to 6.30pm,\$2.00/hr from 7pm to 7am the following day,Charges same as weekdays,Charges same as weekdays,1.3352933999999999,103.8898578
235,Charles & Keith Building,"21 Tai Seng Street, S(534166)",\$2.00/hr from 7am to 7pm,\$1.20/hr from 6.01pm to 6.59am the following day,Charges same as weekdays,\$1.20/hr from 7am to 6pm,1.3371962,103.8891337
236,Gordon Warehouse Building,"9 Kaki Bukit Road 2, S(417842)",\$1.20/hr from 7am to 6pm,HDB / URA parking rates,HDB / URA parking rates,HDB / URA parking rates,1.3379603,103.897336
237,Marang Road,Marang Road,HDB / URA parking rates,"\$2.40/entry from 6pm to 9pm, \$0.04/min from 9pm to 7am the following day","\$0.04/min from 7am to 1pm, \$2.40/entry from 1pm to 9pm, \$0.04/min from 9m to 7am the following day","\$2.40/entry from 7am to 9pm, \$0.04/min from 9pm to 7am the following day",1.2664338,103.8211484
238,Ren Ci Community Hospital,"71 Irrawaddy Road, S(329562)",\$0.04/min from 7am to 6pm,Free Parking,Free Parking,Free Parking,1.3229701999999999,103.8457048
239,Hotel Re!,175A Chin Swee Road S(169879),Free Parking,HDB / URA parking rates,HDB / URA parking rates,HDB / URA parking rates,1.2854141000000001,103.8384137
240,Woodlands Loop,Woodlands Loop,HDB / URA parking rates,Carpark closed,Carpark closed,Carpark closed,1.4479877,103.8072557
241,M-Park @ Club Street,Club Street,Carpark closed,"Free parking from 7pm to 12midnight, \$6.00/entry from 12midnight to 7am the following day","Free parking from 7am to 12midnight, overnight charge from 12midnight to 7am the following day","Free parking from 7am to 12midnight, overnight charge from 12midnight to 7am the following day",1.2823234,103.8460793
242,Midview City,18 Sin Ming Lane S(573960),"1st hr free, \$1.00/hr from 7am to 7pm",Private Car Park,Private Car Park,Private Car Park,1.3582667,103.8340504
243,71 Robinson Road,"71 Robinson Road, (S)068895",Private Car Park,Private Car Park,Private Car Park,Private Car Park,1.2784992,103.8488682
244,Tung Ann Association Building,"141 Cecil Street, S(069541)",Private Car Park,Carpark closed after 10pm daily,\$1.00/hr from 7am to 3pm,Carpark closed,1.2792741,103.848403
245,Admirax ,"8 Admiralty Street, S(757438)",\$1.00/hr from 7am to 10pm,\$5.35/entry from 6pm to 6.59am the following day,\$5.35/entry from 7am to 6.59am the following day,\$5.35/entry from 7am to 6.59am the following day,1.462136,103.815797
246,Asia Square Tower 1,"8 Marina View, S(018960)",\$1.07/10min from 7am to 5.59pm,\$0.50/30min from 5pm to 7am the following day,Charges same as weekdays,\$0.50/30min from 7am to 7am the following day,1.279088,103.8513266
247,Chinatown Complex,"335 Smith Street, S(050335)",\$1.00/30min from 7am to 5pm,"\$3.50/entry from 6pm to 12midnight, Carpark closed after 12midnight","\$2.50/30min from 7am to 1pm, \$3.50/entry from 1pm to 12midnight, Carpark closed after 12midnight",\$3.50/entry,1.2825567,103.8430583
248,Mapletree,"1 Kallang Sector, S(349276)",\$2.50/30min from 7am to 6pm,Private Car Park,Private Car Park,Private Car Park,1.3265047,103.8735277
249,AIA Tower,"1 Robinson Road, S(048542)",Private Car Park,\$2.50/entry from 6pm to 6am the following day,Charges same as weekdays,\$3.00/entry from 6am to 6am the following day,1.2819749,103.851175
250,Oasia Hotel Singapore,"8 Sinaran Drive, S(307470)","\$2.50 for 1st hr, \$1.20 for subsequent 30min from 6am to 6pm",\$2.40/entry from 5pm to 11pm,"\$2.40/30min from 7am to 2pm, \$2.40/entry from 2pm to 11pm",\$2.40/entry from 7am to 7am the following day,1.3200571,103.8447847
251,Robinson 77,"77 Robinson Road, S(068896)",\$2.40/30min from 7am to 5pm,HDB / URA parking rates,HDB / URA parking rates,HDB / URA parking rates,1.2777688999999999,103.8483915
252,Woodlands East Industrial Estate,"20 Woodlands Link, S(738733)",HDB / URA parking rates,Private Car Park,Private Car Park,Private Car Park,1.4505617,103.8111979
253,Singapore Islamic Hub,"273 Braddell Road, S(579702)",Private Car Park,Private Car Park,Private Car Park,Private Car Park,1.342913,103.851895
254,Singapore Land Tower,"50 Raffles Place, S(048623)",Private Car Park,Private Car Park,Private Car Park,Private Car Park,1.2847487,103.8519923
255,Realty Centre,"15 Enggor Street, S(079716)",Private Car Park,\$1.07/30min from 7pm to 7am the following day,\$1.07/30min from 7am to 7am the following day,\$1.07/30min from 7am to 7am the following day,1.2740173,103.844182
256,OrangeTee Building,"430 Lorong 6 Toa Payoh, S(319402)",\$1.07/30min from 7am to 7pm,\$0.03/min from 6pm to 2am the following day,Charges same as weekdays,Charges same as weekdays,1.331579,103.849209
257,Gardens by the Bay,"18 Marina Gardens Drive, S(018953)",\$0.03/min from 5am to 6pm,\$3.00/entry from 10.31pm to 7am the following day,Charges same as weekdays,Charges same as weekdays,1.2813011,103.864418
258,Marina Bay Cruise Centre Singapore (MBCCS),"61 Marina Coastal Drive, S(018947)","\$2.00/hr for 1st 2hr, \$3.00 for next subsequent hr from 7.01am to 10.30pm","\$3.21 for 1st 4hr, \$0.27/10min block or part thereof from 6pm to 6am the following day","\$3.21 for 1st 4hr, \$0.27/10min block or part thereof from 6am to 6am the following day","\$3.21 for 1st 4hr, \$0.27/10min block or part thereof from 6am to 6am the following day",1.2709258999999995,103.8634087
259,Marina Bay Financial Centre Tower 1,"8 Marina Boulevard, S(018981)",\$1.07/10min block or part thereof from 6am to 6pm,"\$3.21 for 1st 4hr, \$0.30/10min from 6pm to 6am the following day","\$3.21 for 1st 4hr, \$0.30/10min from 6pm to 6am the following day","\$3.21 for 1st 4hr, \$0.30/10min from 6pm to 6am the following day",1.2798896999999998,103.8548685
260,Marina Bay Link Mall,8A Marina Boulevard S(018984),\$1.18/10min from 6am to 6pm,"\$3.21 for 1st 4hr, \$0.30/10min block or part thereof from 6pm to 6am the following day","\$3.21 for 1st 4hr, \$0.27/10min block or part thereof from 6am to 6am the following day","\$3.21 for 1st 4hr, \$0.27/10min block or part thereof from 6am to 6am the following day",1.2801731,103.8541949
261,Marina Bay Financial Centre Tower 3,10 Marina Boulevard S(018983),\$1.08/10min block or part thereof from 6am to 6pm,"\$1.30 for 1st hr, \$0.65 for next subsequent 30min from 12midnight to 11.59pm",Charges same as weekdays,"\$2.14 for 1st hr, \$1.07 for next subsequent 30min from 12midnight to 11.59pm",1.2792463,103.8541121
262,The Star Vista,"1 Vista Exchange Green, S(138617)","\$1.30 for 1st hr, \$0.65 for next subsequent 30min from 12midnight to 11.59pm",\$2.50/entry from 5pm to 6.59am the following day,Charges same as weekdays,\$3.00/entry from 12am to 11.59pm,1.3067634,103.7884236
263,Mount Elizabeth Novena Hospital,38 Irrawaddy Road S(329563),"\$2.80 for 1st hr, \$1.50 for next subsequent 30min from 7am to 4.59pm","\$5.00/entry from 6.01pm to 12midnight, Additional \$2.00/entry from 12.01am to 7am the following day","\$5.00/entry from 7.01am to 12midnight the following day, Additional \$2.00/entry from 12.01am to 7am the following day","\$5.00/entry from 701am to 12midnight the following day, Additional \$2.00/entry from 12.01am to 7am the following day",1.3221332000000001,103.8441851
264,Fullerton Bay Hotel,"80 Collyer Quay, S(049326)",\$2.80/30min from 7.01am to 6pm,"\$2.14 for 1st 2hr, \$0.81 for next subsequent 30min from 6pm to 5.59am the following day",Charges same as weekdays,Charges same as weekdays,1.2839163,103.8536559
265,Greenwich Village,1 Seletar Road S(807011),"\$1.34/hr, \$0.81 for subsequent 30min from 6am to 5.59pm","\$0.70/30min from 5pm to 7am the following day, Parking charges capped at \$5.60 from 10.30pm to 7am the following day",Charges same as weekdays,"\$0.70/30min from 5pm to 7am the following day, Parking charges capped at \$5.60 from 10.30pm to 7am the following day",1.3875273,103.869312
266,Angullia Park,"Angullia Park, S(239974)",\$1.30/30min from 7am to 5pm,"\$0.50/30min from 5pm to 7am the following day, Parking charges capped at \$4.00 from 10.30pm to 7am the following day",Charges same as weekdays,"\$0.50/30min from 7am to 7am the following day, Parking charges capped at \$4.00 from 10.30pm to 7am the following day",1.3036631,103.830084
267,Penang Road,Penang Road,\$1.20/30min from 7am to 5pm,"\$0.50/30min from 5pm to 7am the following day, Parking charges capped at \$4.00 from 10.30pm to 7am the following day",Charges same as weekdays,"\$0.50/30min from 7am to 7am the following day, Parking charges capped at \$4.00 from 10.30pm to 7am the following day",1.298794,103.8438609
268,Neil Road,Neil Road,\$1.00/30min from 7am to 5pm,"\$0.70/30min from 5pm to 7am, Parking charges capped at \$5.60 from 10.30pm to 7am the following day",Charges same as weekdays,\$0.70/30min from 7am to 7am the following day,1.2780837,103.8406133
269,Grange Road / Somerset Road,Grange Road / Somerset Road,\$1.30/30min from 7am to 5pm,"\$0.50/30min from 7am to 7am the following day, Parking charges capped at \$4.00 from 10.30pm to 7am the following day",Charges same as weekdays,Charges same as weekdays,1.3008558,103.8372612
270,Hindoo Road / Kampong Kapor Road,Hindoo Road / Kampong Kapor Road,\$0.50/30min from 7am to 7am the following day,"\$0.50/30min from 7am to 7am the following day, Parking charges capped at \$4.00 from 10.30pm to 7am the following day",Charges same as weekdays,Charges same as weekdays,1.3073348999999999,103.85394
271,Hindoo Road,Hindoo Road,\$0.50/30min from 7am to 7am the following day,"\$0.50/30min from 7am to 7am the following day, Parking charges capped at \$4.00 from 10.30pm to 7am the following day",Charges same as weekdays,Charges same as weekdays,1.3079731,103.8547067
272,Shrewsbury Road,Shrewsbury Road,\$0.50/30min from 7am to 7am the following day,"\$0.50/30min from 7am to 7am the following day, Parking charges capped at \$4.00 from 10.30pm to 7am the following day",Charges same as weekdays,Charges same as weekdays,1.3183851,103.8490913
273,Kampong Bugis Road,Kampong Bugis Road,\$0.50/30min from 7am to 7am the following day,"\$2.14/entry from 5pm to 10.59pm, \$1.07/hr from 11pm to 7.59am the following day",Charges same as weekday,"\$2.14/entry from 8am to 10.59pm, \$1.07/hr from 11pm to 7.59am the following day",1.3075391,103.8660948
274,10 Raeburn Park,"10 Raeburn Park, S(088702)",\$1.07/hr from 8am to 4.59pm,"\$2.50/entry from 6pm to 9.59pm, \$4.00/entry from 10pm to 6.59am the following day","\$0.80/30min from 7am to 2.59pm, \$4.00/entry from 3pm to 6.59am the following day",\$4.00/entry from 7am to 6.59am the following day,1.2736132,103.8331396
275,34 Boon Leat Terrace,"34 Boon Leat Terrace, S(119866)",\$0.80/30min from 7am to 5.59pm,\$2.14/entry from 7pm to 6.59am the following day,"\$2.20 for 1st hr, \$1.10 for next subsequent 30min from 7am to 12.59pm, \$2.14/entry from 1pm to 6.59am the following day.","\$2.14/entry from 7am to 10.59pm, \$2.14/entry from 11pm to 6.59am the following day",1.2762877,103.7971727
276,1557 Keppel Road,"1557 Keppel Road, S(089066)","\$2.20 for 1st hr, \$1.10 for next subsequent 30min from 7am to 7pm",\$2.14/30min from 12midnight to 6.59am the following day,Charges same as Weekdays,Charges same as Weekdays,1.2730833,103.8406381
277,Tan Chong Industrial Park,"798 Upper Bukit Timah Road, S(678138)",\$1.07/30min from 7am to 11.59pm,\$0.02/min from 7am to 7am the following day,\$0.018/min from 7am to 7am the following day,\$0.018/min from 7am to 7am the following day,1.3735058999999998,103.763909
278,Burghley Lifestyle Hub,"45 Burghley Drive, (S)559022",\$0.02/min from 7am to 7am the following day,\$1.30/30min from 6am to 6am the following day,Charges same as Weekdays,Charges same as Weekdays,1.3597681,103.8596263
279,25 Lorong 8 Toa Payoh,"25 Lorong 8 Toa Payoh, S(319263)",\$1.30/30min from 6am to 6am the following day,\$0.02/min up to a maximum charge of \$5.00 from 10.30pm to 7am the following day,Charges same as Weekdays,"Free parking from 7am to 10.30pm, \$0.02/min up to a maximum charge of \$5.00 from 10.30pm to 7am the following day",1.338557,103.860755
280,YS-One,"1 Yishun Street 23, (S)768441",\$0.02/min from 7am to 10.30pm,"\$0.50/30min from 7am to 7am the following day, Parking charges capped at \$4.00 from 10.30pm to 7am the following day",Charges same as weekdays,Charges same as weekdays,1.43879,103.8412138
281,East Coast Park (Carpark E3),East Coast Park Service Road,\$0.50/30min from 7am to 7am the following day,"\$0.50/30min from 7am to 7am the following day, Parking charges capped at \$4.00 from 10.30pm to 7am the following day",Charges same as weekdays,Charges same as weekdays,1.3073011,103.9296226
282,East Coast Park (Carpark E2),"1220 East Coast Parkway, S(468960)",\$0.50/30min from 7am to 7am the following day,"\$1.18 for 1st hr, \$0.64 for next subsequent 30min from 7am to 7am the following day",Charges same as weekdays,Charges same as weekdays,1.3066799999999998,103.935039
283,Yew Tee Point,"21 Choa Chu Kang North 6, S(689578)","\$1.18 for 1st hr, \$0.64 for next subsequent 30min from 7am to 7am the following day",\$0.50/30min from 5pm to 7am the following day,"\$0.50/30min from 7am to 11am, Free parking from 11am to 7pm, \$0.50/30min from 7pm to 7am the following day",Free parking from 7am to 7am the following day,1.39729,103.746546
284,Gillman Barracks,"7 Lock Road, S(108935)","Free parking for 1st hr, \$0.50/30min for 2nd hr, \$3.00/hr from the 3rd hr from 7am to 5pm",\$2.50/entry from 6pm to 6am the following day,Charges same as weekdays,Charges same as weekdays,1.2776906000000001,103.8045064
285,Jem,"50 Jurong Gateway Road, S(608549)","\$1.30 for 1st hr, \$0.50 for next subsequent 15min from 6am to 6pm",\$2.50/entry from 7.01pm to 6.59pm the following day,Charges same as Weekdays,Free Parking from 7am to 6.59am the following day,1.333253,103.7433657
286,IBM Singapore Technology Park ,"6 Tampines Industrial Avenue 5, S(528760)",\$0.025/min from 7am to 7pm,\$3.50/entry from 6pm to 6.59am the following day,Charges same as weekdays,Charges same as weekdays,1.373163,103.929232
287,Rochester Mall,"33 Rochester Drive, S(138639)","\$1.30/hr, \$0.65 for next subsequent 30min from 7am to 5.59pm","\$2.00 for 1st 1hr, \$1.50 for next subsequent 30min from 10pm to 7.59am the following day",Charges same as weekdays,Charges same as weekdays,1.3059981,103.7886439
288,OG Orchard Point,"160 Orchard Road, S(238842)","\$2.00 for 1st 1hr, \$1.50 for next subsequent 30min from 8am to 9.59pm",\$3.75/entry from 7pm to 6am the following day,Charges same as weekdays,"\$3.75 for the 1st 2hrs, \$1.61 for next subsequent hr from 6am to 6am the following day",1.3014668,103.8405561
289,People's Park Complex,"1 Park Road, S(059108)","\$3.21 for the first hr, \$1.71 for next subsequent 30min from 6am to 7pm",\$1.20/30min from 7am to 10.59pm,Charges same as weekdays,Charges same as weekdays,1.2841977,103.8425488
290,OG People's Park,"100 Upper Cross Street, S(059108)",\$1.20/30min from 7am to 10.59pm,\$0.80/30min from 5pm to 8am the following day,Charges same as weekdays,\$0.80/30min from 8am to 8am the following day,1.2851228,103.8431638
291,Wilby Central,"Wilby Bukit Timah, 25 Wilby Road S(276300)",\$1.60/30min from 8am to 5pm,\$2.00/hr from 7am to 7am the following day,Charges same as weekdays,Charges same as weekdays,1.3321565,103.7883996
292,myVillage@Serangoon Garden,"1 Maju Avenue #02-03/04/05/06, S(556679)",\$2.00/hr from 7am to 7am the following day,"\$1.50/hr for 1st 2hr, \$2.50 for next subsequent hr from 5pm to 5am the following day","\$1.50/hr, \$4.50 for next subsequent hr from 5am to 5am the following day","\$1.50/hr, \$4.50 for next subsequent hr from 5am to 5am the following day",1.3651296,103.8651984
293,Breadtalk building,"30 Tai Seng Street, S(534013)","\$1.50/hr for 1st 2hr, \$3.50 for next subsequent hr from 5am to 5pm",Private Carpark,Private Carpark,Private Carpark,1.3343323,103.8895688
294,Maritime House,"120 Cantonment Road, S(089760)",Private Carpark,"\$0.27/15min from 6pm to 11.59pm, \$1.07/30min from 12midnight to 7.59am the following day",Charges same as weekdays,"\$1.70/entry from 8am to 11.59pm, \$1.07/30min from 12midnight to 7.59am the following day",1.276612,103.840361
295,Highland Centre,"22 Yio Chu Kang Road, S(545535)","\$0.27/15min from 8am to 1.59pm, \$0.27/10min from 2pm to 5.59pm",\$2.50/entry from 6pm to 11.59pm,Charges same as weekdays,Charges same as weekdays,1.3552569,103.8770268
296,Westgate,"3 Gateway Drive, S(608532)","\$1.30 for 1st hr, \$0.50 for next subsequent 15min from 12midnight to 5.59pm","\$1.50 for 1st hr, \$0.40 for next subsequent 15min from 12midnight to 11.59pm",Charges same as weekdays,Charges same as weekdays,1.3343302,103.7428132
297,Bedok Mall,"311 New Upper Changi Road, S(467360)","\$1.50 for 1st hr, \$0.40 for next subsequent 15min from 12midnight to 11.59pm",\$2.50/entry from 6.01pm to 6.59am the following day,"\$2.50 for 1st 2hr, \$1.20 for next subsequent 30min from 7am to 5pm, \$2.50/entry from 5.01pm to 6.59am the following day","\$2.50 for 1st 2hr, \$1.20 for next subsequent 30min from 7am to 5pm, \$2.50/entry from 5.01pm to 6.59am the following day",1.3247386,103.9291972
298,Changi Link @ UE Bizhub East,"8 Changi Business Park Avenue 1, S(486018)","\$1.50 for the 1st hr, \$1.20 for 2nd hr, \$1.00 for next subsequent 30min from 7am to 6pm","\$4.80 for 1st 2hr 30min, \$1.80 for next subsequent 30min from 6pm to 11.59pm","\$4.80 for 1st 2hr 30min, \$1.80 for next subsequent 30min from 12midnight to 12midnight the following day","\$4.80 for 1st 2hr 30min, \$1.80 for next subsequent 30min from 12midnight to 12midnight the following day",1.334844,103.963907
299,Orchard Gateway,"277 Orchard Road, S(238858)","\$3.00 for 1st 1hr 30min, \$1.50 for next subsequent 30min from 12midnight to 5.59pm",\$2.00/entry from 5.01pm to 7.29am the following day,Charges same as weekdays,\$2.00/entry from 7.30am to 7.29am the following day,1.3006643,103.8390263
300,Excalibur Centre,"71 Ubi Crescent, S(408571)",\$1.20/hr from 7.30am to 5pm,\$3.00/entry from 9pm to 5.59am the following day,Charges same as weekdays,Charges same as weekdays,1.326862,103.898324
301,Arena Country Club,"511 Upper Jurong Road, S(638366)","\$0.60/30min from 6am to 8.59am, \$1.20/hr from 9am to 8.59pm",\$3.30/entry from 7pm to 7am the following day,"\$1.65/hr from 7am to 2pm, \$3.30/entry from 2pm to 7am the following day",\$3.30/entry from 7am to 7am the following day,1.3294583,103.682091
302,Biopolis 3,"3 Biopolis Drive, S(138623)",\$1.65/hr from 7am to 7pm,\$1.07/hr from 7am to 11pm,\$1.07/hr from 7am to 6pm,\$1.07/hr from 7am to 6pm,1.3016813,103.7928216
303,Singapore Institute of Management,"461 Clementi Road, S(599491)",\$1.07/hr from 7am to 11pm,Free parking from 7pm to 10pm,Free parking from 6am to 10.30pm,Free parking from 6am to 10.30pm,1.3291899,103.7761728
304,Ngee Ann Polytechnic,"535 Clementi Road, S(599489)",\$1.07/hr from 6am to 7pm,\$0.50/30min from 5.30pm to 7am the following day,\$0.50/30min from 7am to 7am the following day,\$0.50/30min from 7am to 7am the following day,1.332948,103.777515
305,MOH College of Medicine,"16 College Road, S(169854)",Not applicable,Private Car Park,Private Car Park,Private Car Park,1.280445,103.8336721
306,The Octagon,"105 Cecil Street, S(069534)",Private Car Park,\$1.20/hr from 5pm to 10.30pm,Charges same as weekdays,\$2.80/hr from 7am to 10.30pm,1.2806883999999998,103.8492068
307,The Pinnacle @ Duxton,"1 Cantonment Road, S(080001)",\$2.80/hr from 7am to 5pm,"\$0.50/30min from 5pm to 10.30pm, \$0.50/30min from 10.30pm to 7am the following day","\$0.50/30min from 7am to 10.30pm, \$0.50/30min from 10.30pm to 7am the following day","\$0.50/30min from 7am to 10.30pm, \$0.50/30min from 10.30pm to 7am the following day",1.2772716999999998,103.8416975
308,"Blk 334/333 Kreta Ayer, Blk 4 Sago Lane","334 Kreta Ayer Road, S(050004)",\$1.00/30min from 7am to 5pm,Reserved for season parking from 7pm to 7am the following day,Charges same as weekdays,Charges same as weekdays,1.2814934999999998,103.8422974
309,HDB Bukit Merah Central BM28/30,"Bukit Merah Central, S(150119)",HDB / URA parking rates from 7am to 7pm,HDB / URA parking rates,Charges same as weekdays,Charges same as weekdays,1.283608,103.8161759
310,HDB Joo Chiat MSCP,"3 Joo Chiat Road, S(420003)",HDB / URA parking rates,\$0.64/30min from 7am to 7pm,Charges same as weekdays,Charges same as weekdays,1.3155972,103.8989838
311,Singapore Sports Hub,"2 Stadium Walk, S(397691)",\$0.64/30min from 7am to 7pm,"\$3.21/entry from 6pm to 11.59pm, \$12.00/entry from 12midnight to 5.59am the following day",Charges same as weekdays,"\$3.21/entry from 6am to 11.59pm, \$12.00/entry from 12midnight to 5.59am the following day",1.300506,103.874585
312,Lifelong Learning Institute (LLI),"11 Eunos Road 8, S(408601)",\$1.60/30min from 6am to 5.59pm,\$0.50/30min from 7am to 7am the following day,Charges same as weekdays,Charges same as weekdays,1.3196856,103.892495
313,Maritime Square D Off Street,"1 Maritime Square, S(099253)",\$0.50/30min from 7am to 7am the following day,"\$2.20 for 1st hr, \$1.53 for next subsequent 30min",Charges same as weekdays,Charges same as weekdays,1.2641701,103.8202645
314,Cluny Court,"501 Bukit Timah Road, S(259760)","\$2.20 for 1st hr, \$1.53 for next subsequent 30min",\$3.00/entry from 6pm to 6.59am the following day,Charges same as weekdays,Charges same as weekdays,1.3226733999999998,103.8142876
315,Farrer Park Hospital,"1 Farrer Park Station Road, S(217562)","\$2.00 for 1st hr, \$1.00 for next subsequent 30min from 7am to 5.59pm",\$3.00/entry from 6pm to 6.59am the following day,Charges same as weekdays,Charges same as weekdays,1.3125665000000002,103.8538954
316,Farrer Park Medical Centre,"1 Farrer Park Station Road, S(217562)","\$2.00 for 1st hr, \$1.00 for next subsequent 30min from 7am to 5.59pm",\$3.00/entry from 6pm to 6.59am the following day,Charges same as weekdays,Charges same as weekdays,1.3125665000000002,103.8538954
317,One Farrer Hotel & Spa,"1 Farrer Park Station Road, S(217562)","\$2.00 for 1st hr, \$1.00 for next subsequent 30min from 7am to 5.59pm","\$0,035/min from 12midnight to 12midnight the following day",Charges same as weekdays,Charges same as weekdays,1.3125665000000002,103.8538954
318,Changi Airport South Carpark,"60 Airport Boulevard, S(819643)","\$0,035/min from 12midnight to 12midnight the following day","\$1.20 for 1st hr, \$0.60 for next subsequent 30min from 5pm to 10pm",Charges same as weekdays,Charges same as weekdays,1.3550934,103.9890246
319,Seletar Mall,"33 Sengkang West Avenue, S(797653)","\$1.20 for 1st hr, \$0.60 for next subsequent 30min from 10am to 5pm","\$2.00/entry from 6pm to 2am the following day, \$1.50 for 1st hr, \$0.80 for subsequent 30min from 2am to 6am",Charges same as weekdays,Charges same as weekdays,1.3914877,103.8761964
320,OneKM Shopping Mall,"11 Tanjong Katong Road, S(437157)","\$1.50 for 1st hr, \$0.40 for subsequent 15min from 7am to 6pm","\$1.07 for 1st hr, \$0.64 for next subsequent 30min from 5pm th 7am the following day",Charges same as weekdays,Charges same as weekdays,1.3147966999999998,103.8946028
321,HillV2,"4 Hillview Rise, S(667979)","\$1.07 for 1st hr, \$0.64 for next subsequent 30min from 7am th 5pm",\$0.50/30min from 6pm to 2am the following day,Charges same as weekdays,Charges same as weekdays,1.3634128,103.764468
322,East Village,"430 Upper Changi Road, S(487048)",\$0.50/30min from 2am to 6pm,"Free parking from 6.30pm to 11pm, \$2.40/hr from 11pm to 7am the following day","Free parking from 7am to 11pm, \$2.40/hr from 11pm to 7am the following day","Free parking from 7am to 11pm, \$2.40/hr from 11pm to 7am the following day",1.3318752,103.9463585
323,Alexandra Retail Centre,"460 Alexandra Road, S(119963)",\$2.00/hr from 7am to 6.30pm,\$3.00/entry from 5pm to 7am the following day,Charges same as weekdays,\$3.00/entry from 7am to 7am the following day,1.2739458,103.8014493
324,Commerze @ Irving,"1 Irving Place, S(369546)",\$1.00/30min from 7am to 5pm,\$2.20/entry from 5pm to 7am the following day,Charges same as weekdays,\$3.30/entry from 7am to 7am the following day,1.3362276000000002,103.88641640000002
325,Link@AMK,"3 Ang Mo Kio Street 62, S(569139)",\$0.65/30min from 7am to 5pm,\$3.00/entry from 5pm to 7.59am the following day,Charges same as weekdays,\$3.00/entry from 8am to 7.59am the following day,1.3862158000000002,103.8449205
326,100 AM Shopping Mall,"100 Tras Street, S(079027)",\$2.00/30mim from 8am to 4.59pm,\$2.68/entry from 6pm to 6am the following day,"\$1.07/hr from 6am to 6pm, \$2.68/entry from 6pm to 6am the following day","\$1.07/hr from 6am to 6pm, \$2.68/entry from 6pm to 6am the following day",1.2750321000000002,103.8435511
327,The Metropolis,"9 North Buona Vista Drive, S(138588)","\$2.68 for 1st hr, \$1.34 for next subsequent 30min from 6am to 6pm","\$1.50 for 1st hr, \$0.75 for next subsequent 30min from 5pm to 8am the following day",Charges same as weekdays,Charges same as weekdays,1.3059766000000002,103.7915092
328,Victory 8,"8 Jalan Legundi, S(759274)","\$1.50 for 1st hr, \$0.75 for next subsequent 30min from 8am to 5pm","\$1.20 for 1st hr, \$0.60 for next subsequent 30min from 6pm to 12midnight","\$1.20 for 1st hr, \$0.60 for next subsequent 30min from 12midnight to 12midnight the following day","\$1.20 for 1st hr, \$0.60 for next subsequent 30min from 12midnight to 12midnight the following day",1.441594,103.823693
329,Paya Lebar Square,"60 Paya Lebar Road, S(409051)","\$1.50 for 1st hr, \$0.80 for next subsequent 30min from 12midnight to 6pm","Free for 1st 2hr, \$0.30 for next subsequent 15min from 12midnight to 6am the following day",Charges same as weekdays,Charges same as weekdays,1.3188077,103.892495
330,Fairprice Hub,"1 Joo Koon Circle, (S)629117","Free for 1st 2hr, \$0.30 for next subsequent 15min from 6am to 11.59pm",\$5.35/entry from 6pm to 6.59am the following day,\$5.35/entry from 7am to 6.59am the following day,\$5.35/entry from 7am to 6.59am the following day,1.3273513000000001,103.6788361
331,Asia Square Tower 2,"12 Marina View, S(018961)",\$1.07/10min from 7am to 5.59pm,"\$0.90/30min from 6pm to 12midnight, \$0.60/30min from 12midnight to 7am the following day",Charges same as weekdays,Charges same as weekdays,1.2782876,103.8506365
332,Sports Hub@Punggol,"6 Tebing Lane, S(828835)",\$0.60/30min from 7am to 6pm,\$3.00/entry from 6pm to 10.59am the following day,"\$2.00 for the 1st 2hr, \$0.40 for next subsequent 15min from 11am to 11am the following day","\$2.00 for the 1st 2hr, \$0.40 for next subsequent 15min from 11am to 11am the following day",1.3923769,103.9161208
333,Capitol Piazza,"13 Stamford Road, S(178905)","\$2.00 for the 1st hr, \$0.40 for next subsequent 15min from 11am to 5.59pm",\$2.50/hr from 12midnight to 6am the following day,Charges same as weekdays,Charges same as weekdays,1.2937794,103.8517211
334,Big Box,"1 Venture Avenue, S(608521)","\$1.60 for 1st hr, \$0.50 for next subsequent 15min from 6am to 12midnight",\$3.75/entry from 6pm to 6.59am the following day,"\$1.07/10min from 7am to 2.59pm, \$3.75/entry from 3pm to 11.59pm",\$3.75/entry from 7am to 7am the following day,1.3318799,103.7448812
335,OUE Bayfront,"50 Collyer Quay, S(049321)",\$1.07/10min from 7am to 5.59pm,\$0.64/30min from 7pm to 7am,Charges same as weekdays,Charges same as weekdays,1.2830494,103.8527595
336,Kallang Wave Mall,"1 Stadium Place, S(397628)",\$0.64/30min from 7am to 7pm,\$5.00/entry from 6pm to 7am the following day,"\$2.50/hr from 7am to 5.59pm, \$5.00/entry from 6pm to 6.59am the following day","\$2.50/hr from 7am to 5.59pm, \$5.00/entry from 6pm to 6.59am the following day",1.3043885,103.8742828
337,School of the Arts Singapore,"1 Zubir Said Drive, S(227968)",\$2.50/hr from 7am to 5.59pm,\$3.50/entry from 5pm to 7am the following day,\$5.00/entry from 7am to 7am the following day,\$5.00/entry from 7am to 7am the following day,1.298907,103.84871
338,South Beach Tower,"38 Beach Road, S(189767)",\$2.40/hr from 7am to 5pm,\$2.14/entry from 5pm to 8am the following day,Charges same as weekdays,\$2.14/entry from 8am to 8am the following day,1.2956087,103.856456
339,Golden Landmark Shopping Complex ,390 Victoria Street S(188061),"\$1.90 for 1st hr, \$1.07 for next subsequent 30min from 8am to 5pm","\$5.00 for 1st hr, \$2.50 for next subsequent 30min from 5pm to 8am the following day",Charges same as weekdays,Charges same as weekdays,1.3020357,103.857782
340,PARKROYAL on Pickering ,"3 Upper Pickering Street, S(058289)","\$5.00 for 1st hr, \$2.50 for next subsequent 30min from 8am to 5pm",\$3.20/entry from 6pm to 7am the following day,Charges same as weekdays,Charges same as weekdays,1.284786,103.8477109
341,National Gallery Singapore,"1 Saint Andrew's Road, S(178957)",\$1.30/30min from 7am to 6pm,\$3.50/entry from 7am to 12midnight from Mon to Thursday,"\$4.00 for 1st 4hr from 7am to 5pm, \$4.00/entry from 5pm to 1am from Friday to Sunday","\$4.00 for 1st 4hr from 7am to 5pm, \$4.00/entry from 5pm to 1am from Friday to Sunday",1.2912718,103.8518183
342,Quayside Isle @ Sentosa Cove,"31 Ocean Way, Sentosa Cove, S(098375)",\$3.50/entry from 7am to 12midnight from Mon to Thursday,\$1.50/hr from 1am to 6.59am,Charges same as weekdays,Charges same as weekdays,1.247633,103.84217
343,W Singapore Sentosa Cove,"21 Ocean Way Sentosa, S(098374)",\$3.50/entry from 7am to 12.59am the following day,\$3.70/entry from 6pm to 6.59am the following day,"\$3.10/30min from 7am to 12.59pm, \$3.70/entry from 1pm to 6.59am the following day",\$3.70/entry from 7am to 6.59am the following day,1.2462983,103.8423394
344,CapitaGreen,"138 Market Street, S(048946)",\$3.10/30min from 7am to 5.59pm,\$1.10/30min from 5pm to 8am the following day,Charges same as weekdays,Charges same as weekdays,1.2818026000000002,103.8501248
345,Ibis Singapore On Bencoolen Hotel,"170 Bencoolen Street, S(189657)",\$1.10/30min from 8am to 5pm,"\$1.20 for the first hr, \$0.60 for next subsequent 30min from 5pm to 8am the following day",Charges same as weekdays,Charges same as weekdays,1.3011636,103.8525675
346,Waterway Point,"83 Punggol Central, S(828761)","\$1.20 for the first hr, \$0.60 for next subsequent 30min from 8am to 5pm","\$4.28/hr, \$2.14 for next subsequent 30min from 5pm to 8am the following day",Charges same as weekdays,Charges same as weekdays,1.4064992,103.9022213
347,Pan Pacific Serviced Suites Orchard,"96 Somerset Rd, S(238163)","\$4.28/hr, \$2.14 for next subsequent 30min from 8am to 5pm",\$3.00/entry from 5pm to 7am the following day,"\$2.50/30min from 7am to 1pm, \$3.00/entry from 1pm to 7am the following day",\$3.00/entry from 7am to 7am the following day,1.3009657,103.8378432
348,"Oasia Hotel Downtown, Singapore","100 Peck Seah Street, S(079333)",\$2.50/30min from 7am to 5pm,\$3.50/entry from 5pm to 7am the following day,Charges same as weekdays,\$3.50/entry from 7am to 7am the following day,1.2759018,103.8443705
349,"Carlton City Hotel, Singapore","1 Gopeng Street, S(078862)",\$2.50/30min from 7am to 5pm,\$0.36/15min from 6am to 12midnight,Charges same as weekdays,Charges same as weekdays,1.2759713,103.8437168
350,Devan Nair Institute for Employment and Employability,"80 Jurong East Street 21, S(609607)",\$0.36/15min from 6am to 12midnight,"\$2.05/entry from 6pm to 5.59am the following day (Members), \$3.40/entry from 6pm to 5.59am the following day (Public)",Charges same as weekdays,"\$2.05/entry from 6am to 5.59am the following day (Members), \$3.40/entry from 6am to 5.59am the following day (Public)",1.3358378,103.7446366
351,Safra Punggol Clubhouse,"9 Sentul Crescent, S(828654)","\$1.05 for 1st hr, \$0.27 for next subsequent 15min from 6am to 5.59pm (Members), \$1.95 for 1st hr, \$0.49 for next subsequent 15min from 6am to 5.59pm (Public)",\$3.50/entry from 5pm to 6.59am the following day,Charges same as weekdays,"\$3.50/entry from 7am to 4.59pm, \$3.50/entry from 5pm to 6.59am the following day",1.4100532,103.9057438
352,Car Park @ 22 Bideford Road,"22 Bideford Road, S(229923)","\$2.50 for 1st hr, \$1.25 for next subsequent 30min from 7am to 4.59pm",\$0.50/30min from 10.31pm to 7am the following day up to a maximum charge of \$4.00,Charges same as weekdays,"Free parking from 7.01am to 10.30pm, \$0.50/30min from 10.31pm to 7am the following day up to a maximum charge of \$4.00",1.3034523999999998,103.8361327
353,Kaki Bukit Autohub,"2 Kaki Bukit Avenue 2,  S(417921)",\$0.50/30min from 7.01am to 10.30pm,\$5.00/entry from 10pm to 6.59am the following day,\$5.00/entry from 7am to 6.59am the following day,\$5.00/entry from 7am to 6.59am the following day,1.3372746000000002,103.9006795
354,CES Centre,"171 Chin Swee Road, S(169877)",\$2.80/hr from 7am to 9.59pm,"\$1.00 for 1st hr, \$0.25 for next subsequent 15min form 6pm to 10pm, \$0.32 for 1st hr, \$0.08 for next subsequent 15min from 10pm to 6am the following day","\$0.48 for 1st hr, \$0.12 for next subsequent 15min from 6am to 10am, \$1.00 for 1st hr, \$0.25 for next subsequent 15min from 10am to 9pm, \$0.48 for 1st hr from 9pm to 6am","\$0.48 for 1st hr, \$0.12 for next subsequent 15min from 6am to 10am, \$1.00 for 1st hr, \$0.25 for next subsequent 15min from 10am to 9pm, \$0.48 for 1st hr from 9pm to 6am",1.2867901000000002,103.840128
355,Katong Square ,"86 East Coast Road, S(428788)","\$0.48 for 1st hr, \$0.12 for next subsequent 15min from 6am to 10am, \$0.96 for 1st hr, \$0.24 for next subsequent 15min from 10am to 6pm","\$1.00 for 1st hr, \$0.25 for next subsequent 15min form 6pm to 10pm, \$0.32 for 1st hr, \$0.08 for next subsequent 15min from 10pm to 6am the following day","\$0.48 for 1st hr, \$0.12 for next subsequent 15min from 6am to 10am, \$1.00 for 1st hr, \$0.25 for next subsequent 15min from 10am to 9pm, \$0.48 for 1st hr from 9pm to 6am","\$0.48 for 1st hr, \$0.12 for next subsequent 15min from 6am to 10am, \$1.00 for 1st hr, \$0.25 for next subsequent 15min from 10am to 9pm, \$0.48 for 1st hr from 9pm to 6am",1.3051239,103.9043237
356,Hotel Indigo Singapore Katong,"86 East Coast Road, S(428788)","\$0.94 for 1st hr, \$0.12 for next subsequent 15min from 6am to 10am, \$0.96 for 1st hr, \$0.24 for next subsequent 15min from 10am to 6pm","\$1.00 for 1st hr, \$0.25 for next subsequent 15min form 6pm to 10pm, \$0.32 for 1st hr, \$0.08 for next subsequent 15min from 10pm to 6am the following day","\$0.48 for 1st hr, \$0.12 for next subsequent 15min from 6am to 10am, \$1.00 for 1st hr, \$0.25 for next subsequent 15min from 10am to 9pm, \$0.48 for 1st hr from 9pm to 6am","\$0.48 for 1st hr, \$0.12 for next subsequent 15min from 6am to 10am, \$1.00 for 1st hr, \$0.25 for next subsequent 15min from 10am to 9pm, \$0.48 for 1st hr from 9pm to 6am",1.3051239,103.9043237
357,Holiday Inn Express Singapore Katong ,"86 East Coast Road, S(428788)","\$0.96 for 1st hr, \$0.24 for next subsequent 15min from 10am to 6pm","\$5.25 for 1st hr, \$2.14 for subsequent 30min from 5pm to 8am the following day",Charges same as weekdays,Charges same as weekdays,1.3051239,103.9043237
358,Mercure Singapore Bugis,"112 Middle Road, S(188973)","\$5.25 for 1st hr, \$2.25 for subsequent 30min from 8am to 5pm","\$3.40/entry from 5pm to 1.59am the following day, \$2.90/hr from 2am to 6.59am",\$2.50/entry from 7am to 6.59am the following day,\$2.50/entry from 7am to 6.59am the following day,1.2990794,103.8537523
359,Tanjong Pagar Centre,"5 Wallich Street, S(078883)",\$2.90/30min from 7am to 4.59pm,"\$2.00/entry from 5pm to 12midnight, \$3.00/hr from 12midnight to 6am the following day","\$1.00/30min from 6am to 2pm, \$2.00/entry from 2pm to 12midnight, \$3.00/hr from 12midnight to 6am the following day","\$2.00/entry from 6am to 12midnight, \$3.00/hr from 12midnight to 6am the following day",1.2766643999999998,103.8458171
360,18 Tai Seng,"18 Tai Seng Street, S(539775)",\$1.00/30min from 6am to 5pm,\$2.14/entry from 10pm to 6.59am the following day,Charges same as weekdays,"\$0.018/min from 7am to 9.59pm, \$2.14/entry from 10pm to 6.59am the following day",1.3365878999999998,103.8888008
361,National Heart Centre Singapore,"5 Hospital Drive, S(169609)",\$0.036/min from 7am to 9.59pm,"\$7.00 for 1st hr, \$3.50 for next subsequent 30min from 6pm to 7am the following day",Charges same as weekdays,Charges same as weekdays,1.27834,103.835838
362,Regent Hotel (Cuscaden Parking),"1 Cuscaden Road, S(249715)","\$7.00 for 1st hr, \$3.50 for next subsequent 30min from 7am to 6pm",\$3.00/hr from 12midnight to 11.59pm from Mon to Thurs,\$4.00/hr from 12midnight to 11.59pm the from Fri to Sun,\$4.00/hr from 12midnight to 11.59pm the from Fri to Sun,1.3046722,103.8248342
363,Genting Hotel Jurong,"2 Town Hall Link, S(608516)",\$3.00/hr from 12midnight to 11.59pm from Mon to Thurs,\$2.15 per entry from 5.01pm to 7.00am the following day,Charges same as weekdays,\$3.25 per entry from 7.01am to 7.00am the following day,1.331365,103.739439
364,UB. One,81 Ubi Ave 4,\$0.70/30min or part thereof from 7.01am to 5.00pm,"\$6.00 for 1st hr, \$4.50 for next subsequent hour",Charges same as weekdays,Charges same as weekdays,1.333724,103.8919483
365,Studio M Hotel,3 Nanson Road S(238910),"\$6.00 for 1st hr, \$4.50 for next subsequent hour",\$3.50/entry from 7pm to 7am the following day,Charges same as weekdays,\$3.50/entry from 7pm to 7am the following day,1.2907956,103.8391954
366,100 Pasir Panjang,100 Pasir Panjang Road S(118518),"\$1.80 for 1st hr, \$0.80 for next subsequent 30min or part thereof from 7am to 7pm","\$2.40/entry from 6pm to 11.59pm, \$1.20 for 1st hr, \$0.60 for next subsequent 30min from 12midnight to 5.59am the following day",Charges same as weekdays,Charges same as weekdays,1.2754986,103.7957715
367,Our Tampines Hub,"51 Tampines Avenue 4, S(529684)","\$1.20 for 1st hr, \$0.60 for next subsequent 30min from 6am to 5.59pm",\$2.40/entry from 6pm to 6.59am the following day,Charges same as Weekdays,Charges same as Weekdays,1.3524314,103.9409849
368,Cideco Industrial Complex,50 Genting Lane S(349558),"\$1.35 for 1st hr, \$0.70 for subsequent 30min from 7am to 5.59pm","\$1.07 for 1st 2hr, \$1.07 for subsequent \$2.40/entry from 6pm to 6.59am the following day",Charges same as Weekdays,Charges same as Weekdays,1.3276175,103.8737528
369,City Industrial Building,"71 Tannery Lane, S(347807)","\$1.35 for 1st hr, \$0.70 for subsequent 30min from 7am to 5.59pm",\$1.07/entry from 6pm to 6am the following day,\$1.07/entry,\$1.07/entry,1.3269643999999998,103.8791035
370,Galaxis,"1 & 3 Fusionopolis Place, S(138577)",\$1.07/30min or part thereof from 6am to 6pm,"\$3.50/entry from 6pm to 5.59am the following day, free parking from 6.30pm to 9.59pm, \$2.50/entry from 10pm to 5.59am the following day",\$2.50/entry from 6am to 5.59am the following day,\$2.50/entry from 6am to 5.59am the following day,1.2924739,103.8565218
371,Aperia Mall,"8/10/12 Kallang Avenue, S(339509)","\$1.50 for 1st 2hr, \$3.00 for next subsequent hr",\$2.50/entry from 6.01pm to 7am the following day,"\$2.50 for 1st 2hr, \$1.20 for next subsequent 30min from 7.01am to 5pm, \$2.50/entry from 5.01pm to 7am the following day","\$2.50 for 1st 2hr, \$1.20 for next subsequent 30min from 7.01am to 5pm, \$2.50/entry from 5.01pm to 7am the following day",1.3108083,103.8643586
372,Capri By Fraser,"3 Changi, Business Park Central 1, S (486037)",\$0.70/30min from 7.01am to 6pm,Complimentary parking for hotel guests only,Complimentary parking for hotel guests only,Complimentary parking for hotel guests only,1.3341011,103.9636612
373,Sofitel Singapore Sentosa Resort & Spa Hotel,"2 Bukit Manis Road, S(099891)",Complimentary parking for hotel guests only,\$3.21/entry from 5pm to 8am the following day,\$3.21/entry from 8am to 8am the following day,\$3.21/entry from 8am to 8am the following day,1.2456805,103.8278778
374,One15 Marina Club,"11 Cove Drive, S(098497)",\$3.21/entry from 8am to 5pm,Complimentary parking for hotel guests only,Complimentary parking for hotel guests only,Complimentary parking for hotel guests only,1.2459842,103.8392463
375,The Warehouse Hotel,"320 Havelock Road, S(169628)",Complimentary parking for hotel guests only,Complimentary parking for hotel guests only,Complimentary parking for hotel guests only,Complimentary parking for hotel guests only,1.2890431,103.8372797
376,Hilton Garden Inn,"3 Belilios Road, S(219924)",Complimentary parking for hotel guests only,\$2.40/hr from 5pm to 8am the following day,Charges same as weekdays,Charges same as weekdays,1.3084622,103.8518951
377,Crowne Plaza Changi Airport,"75 Airport Boulevard, S(819664)",\$2.40/hr from 8am to 5pm,\$2.00/entry after 7pm,Charges same as weekdays,Charges same as weekdays,1.3586492,103.9880323
378,CT Hub,"2 Kallang Ave, S(339407)",\$1.80/hr before 7pm,\$3.50/entry from 7pm to 7am the following day,"\$2.25/30min from 7am to 1pm, \$3.50/entry from 1pm to 7am the following day",\$3.50/entry from 7am to 7am the following day,1.3122385,103.8628947
379,Singapore Chinese Cultural Centre,"1 Straits Boulevard, S(018906)",\$2.25/30min from 7am to 7pm,\$2.20/entry from 6pm to 6am the following day,"1st 2hr free, \$1.60 for 1st hr, \$0.80 for next subsequent 30min from 6am to 6pm, \$2.20/entry from 6pm to 6am the following day","1st 2hr free, \$1.60 for 1st hr, \$0.80 for next subsequent 30min from 6am to 6pm, \$2.20/entry from 6pm to 6am the following day",1.275964,103.849523
380,Zhongshan Mall,"20 Ah Hood Road, S(329984)","\$1.60 for 1st hr, \$0.80 for next subsequent 30min from 6am to 6pm, free parking from 12pm to 2pm","\$1.20 for 1st hr, \$0.80 for next subsequent 30min",Charges same as weekdays,Charges same as weekdays,1.3277894,103.8475462
381,Junction Nine,18 Yishun Avenue 9,"\$1.20 for 1st hr, \$0.80 for next subsequent 30min",,,,1.4335409,103.8413412
